{
  "type": "FeatureCollection",
  "generator": "overpass-ide",
  "copyright": "The data included in this document is from www.openstreetmap.org. The data is made available under ODbL.",
  "timestamp": "2021-12-14T12:50:12Z",
  "features": [
    {
      "type": "Feature",
      "properties": {
        "@id": "node/25869410",
        "admin_level": "2",
        "alt_name:gl": "Ankara",
        "capital": "yes",
        "is_capital": "country",
        "name": "Ankara",
        "name:ab": "Анкара",
        "name:am": "አንካራ",
        "name:ang": "Ancyra",
        "name:ar": "أنقرة",
        "name:arc": "ܐܢܩܪܐ",
        "name:arz": "انقره",
        "name:av": "Анкара",
        "name:be": "Анкара",
        "name:be-tarask": "Анкара",
        "name:bg": "Анкара",
        "name:bjn": "Angkara",
        "name:bn": "আঙ্কারা",
        "name:bo": "ཨན་ཁ་ར།",
        "name:br": "Ankara",
        "name:cdo": "Ăng-kā-lá",
        "name:ckb": "ئەنقەرە",
        "name:de": "Ankara",
        "name:el": "Άγκυρα",
        "name:en": "Ankara",
        "name:eo": "Ankaro",
        "name:eu": "Ankara",
        "name:fa": "آنکارا",
        "name:fr": "Ankara",
        "name:gl": "Ancara",
        "name:he": "אנקרה",
        "name:hi": "अंकारा",
        "name:hu": "Ankara",
        "name:hy": "Անկարա",
        "name:ie": "Ancara",
        "name:is": "Ankara",
        "name:ja": "アンカラ",
        "name:ka": "ანკარა",
        "name:kk": "Анкара",
        "name:kn": "ಅಂಕಾರಾ",
        "name:ko": "앙카라",
        "name:koi": "Анкара",
        "name:ku": "Enqere",
        "name:ky": "Анкара",
        "name:la": "Ancyra",
        "name:lbe": "Анкъара",
        "name:mdf": "Анкара",
        "name:mhr": "Анкара",
        "name:mi": "Anakara",
        "name:mk": "Анкара",
        "name:ml": "അങ്കാറ",
        "name:mn": "Анкара",
        "name:mr": "अंकारा",
        "name:mrj": "Анкара",
        "name:mzn": "آنکارا",
        "name:nah": "Ancara",
        "name:nl": "Ankara",
        "name:oc": "Ankara",
        "name:os": "Анкара",
        "name:pl": "Ankara",
        "name:pnb": "انکرہ",
        "name:ps": "انقره",
        "name:pt": "Ancara",
        "name:roa-rup": "Ancara",
        "name:ru": "Анкара",
        "name:sah": "Анкара",
        "name:sr": "Анкара",
        "name:sv": "Ankara",
        "name:ta": "அங்காரா",
        "name:te": "అంకారా",
        "name:tg": "Анкара",
        "name:th": "อังการา",
        "name:tr": "Ankara",
        "name:tt": "Әнкара",
        "name:udm": "Анкара",
        "name:ug": "Enqere",
        "name:uk": "Анкара",
        "name:ur": "انقرہ",
        "name:vep": "Ankar",
        "name:wuu": "安卡拉",
        "name:xmf": "ანკარა",
        "name:yi": "אנקארא",
        "name:yue": "安卡拉",
        "name:zh": "安卡拉",
        "name:zza": "Anqara",
        "old_name:es": "Angora",
        "place": "city",
        "population": "5663322",
        "population:date": "2021",
        "salb:id": "TUR007",
        "salb:name": "Ankara",
        "source": "Wikipedia (tr)",
        "source:name:br": "same as name",
        "source:name:oc": "Lo Congrès",
        "wikidata": "Q3640",
        "wikipedia": "tr:Ankara"
      },
      "geometry": {
        "type": "Point",
        "coordinates": [
          32.8540482,
          39.9207886
        ]
      },
      "id": "node/25869410"
    },
    {
      "type": "Feature",
      "properties": {
        "@id": "node/25869574",
        "name": "Edirne",
        "name:ar": "أدرنة",
        "name:bg": "Одрин",
        "name:cs": "Drinopol",
        "name:el": "Αδριανούπολη",
        "name:fr": "Edirne",
        "name:he": "אדירנה",
        "name:hu": "Edirne",
        "name:it": "Edirne",
        "name:lt": "Edirnė",
        "name:mk": "Одрин",
        "name:ru": "Эдирне",
        "name:sr": "Једрене",
        "name:uk": "Едірне",
        "old_name:it": "Adrianopoli",
        "place": "city",
        "population": "173037",
        "salb:id": "TUR028",
        "salb:name": "Edirne",
        "source": "Wikipedia",
        "wikidata": "Q43387",
        "wikipedia": "tr:Edirne"
      },
      "geometry": {
        "type": "Point",
        "coordinates": [
          26.5587225,
          41.6759327
        ]
      },
      "id": "node/25869574"
    },
    {
      "type": "Feature",
      "properties": {
        "@id": "node/25869575",
        "name": "Çanakkale",
        "name:ar": "جنق قلعة",
        "name:el": "Τσανάκκαλε",
        "name:hi": "चाणकले",
        "name:mk": "Чанаккале",
        "name:ml": "ചാണക്കലി",
        "name:ru": "Чанаккале",
        "name:tr": "Çanakkale",
        "place": "city",
        "population": "519793",
        "salb:id": "TUR022",
        "salb:name": "Canakkale",
        "source": "Wikipedia",
        "wikidata": "Q199712",
        "wikipedia": "en:Çanakkale"
      },
      "geometry": {
        "type": "Point",
        "coordinates": [
          26.4139699,
          40.1535295
        ]
      },
      "id": "node/25869575"
    },
    {
      "type": "Feature",
      "properties": {
        "@id": "node/25869577",
        "name": "Kırklareli",
        "name:ar": "قرقلر ايلي",
        "name:bg": "Лозенград",
        "name:el": "Σαράντα Εκκλησιές",
        "name:hu": "Kırklareli",
        "name:mk": "Лозенград",
        "name:ru": "Кыркларели",
        "name:tr": "Kırklareli",
        "old_name": "Kırkkilise",
        "place": "city",
        "population": "277984",
        "salb:id": "TUR051",
        "salb:name": "Kirklareli",
        "source": "Wikipedia",
        "wikidata": "Q206903",
        "wikipedia": "tr:Kırklareli"
      },
      "geometry": {
        "type": "Point",
        "coordinates": [
          27.2235523,
          41.7370223
        ]
      },
      "id": "node/25869577"
    },
    {
      "type": "Feature",
      "properties": {
        "@id": "node/25869582",
        "name": "Balıkesir",
        "name:ar": "بالق أسير",
        "name:el": "Μπαλικεσίρ",
        "name:hi": "बालिकेसिर",
        "name:hu": "Balıkesir",
        "name:mk": "Баликесир",
        "name:pt": "Balıkesir",
        "name:ru": "Балыкесир",
        "name:tr": "Balıkesir",
        "place": "city",
        "population": "1196170",
        "salb:id": "TUR012",
        "salb:name": "Balikesir",
        "source": "Wikipedia",
        "website": "http://www.balikesir.gov.tr/",
        "wikidata": "Q199723",
        "wikipedia": "tr:Balıkesir"
      },
      "geometry": {
        "type": "Point",
        "coordinates": [
          27.8879787,
          39.6473917
        ]
      },
      "id": "node/25869582"
    },
    {
      "type": "Feature",
      "properties": {
        "@id": "node/25869694",
        "name": "Muğla",
        "name:ar": "موغلا",
        "name:el": "Μουγλά",
        "name:hi": "म्यूग्ला",
        "name:ml": "മുഗ്ല",
        "name:ru": "Мугла",
        "name:tr": "Muğla",
        "place": "city",
        "population": "923773",
        "salb:adm1name": "Mugla",
        "salb:adm2name": "Mugla Merkez Ilcesi",
        "salb:id": "TUR059012",
        "salb:name": "Mugla",
        "source": "Wikipedia (tr)",
        "wikidata": "Q216912",
        "wikipedia": "tr:Muğla"
      },
      "geometry": {
        "type": "Point",
        "coordinates": [
          28.3637726,
          37.215154
        ]
      },
      "id": "node/25869694"
    },
    {
      "type": "Feature",
      "properties": {
        "@id": "node/25869720",
        "admin_level": "4",
        "alt_name": "Afyon",
        "alt_name:ar": "أفيون",
        "name": "Afyonkarahisar",
        "name:ar": "أفيون قره حصار",
        "name:el": "Αφιόν Καραχισάρ",
        "name:fa": "افیون قره‌حصار",
        "name:hi": "अफयोंकरहिसार",
        "name:hu": "Afyonkarahisar",
        "name:lt": "Afjonkarahisaras",
        "name:ml": "അഫ്യോൺക്കരാഹിസാർ",
        "name:ru": "Афьон",
        "name:uk": "Афьон-Карахісар",
        "name:ur": "افیون قرہ حصار",
        "place": "city",
        "population": "736912",
        "population:date": "2021",
        "salb:id": "TUR003",
        "salb:name": "Afyon",
        "source": "Wikipedia (tr)",
        "wikidata": "Q166824",
        "wikipedia": "tr:Afyonkarahisar"
      },
      "geometry": {
        "type": "Point",
        "coordinates": [
          30.5386944,
          38.7568509
        ]
      },
      "id": "node/25869720"
    },
    {
      "type": "Feature",
      "properties": {
        "@id": "node/25869729",
        "name": "Bilecik",
        "name:ar": "بيلجيك",
        "name:hu": "Bilecik",
        "name:ru": "Биледжик",
        "name:uk": "Біледжик",
        "place": "city",
        "population": "51260",
        "salb:id": "TUR016",
        "salb:name": "Bilecik",
        "source": "Wikipedia (tr)",
        "wikidata": "Q208006",
        "wikipedia": "tr:Bilecik"
      },
      "geometry": {
        "type": "Point",
        "coordinates": [
          29.9752911,
          40.1435101
        ]
      },
      "id": "node/25869729"
    },
    {
      "type": "Feature",
      "properties": {
        "@id": "node/25869752",
        "name": "Burdur",
        "name:ar": "بوردور",
        "name:hu": "Burdur",
        "name:ru": "Бурдур",
        "name:uk": "Бурдур",
        "place": "city",
        "population": "261401",
        "salb:adm1name": "Burdur",
        "salb:adm2name": "Burdur Merkez Ilcesi",
        "salb:id": "TUR020011",
        "salb:name": "Burdur",
        "source": "Wikipedia (tr)",
        "wikidata": "Q211811",
        "wikipedia": "tr:Burdur"
      },
      "geometry": {
        "type": "Point",
        "coordinates": [
          30.2887286,
          37.7248394
        ]
      },
      "id": "node/25869752"
    },
    {
      "type": "Feature",
      "properties": {
        "@id": "node/25869768",
        "name": "Düzce",
        "name:ar": "دوزجة",
        "name:hu": "Düzce",
        "name:ml": "ഡ്യുസ്ജ",
        "name:ru": "Дюздже",
        "name:tr": "Düzce",
        "name:uk": "Дюздже",
        "place": "city",
        "population": "370371",
        "salb:id": "TUR027",
        "salb:name": "Duzce",
        "source": "Wikipedia (tr)",
        "wikidata": "Q206885",
        "wikipedia": "tr:Düzce"
      },
      "geometry": {
        "type": "Point",
        "coordinates": [
          31.164851,
          40.8458611
        ]
      },
      "id": "node/25869768"
    },
    {
      "type": "Feature",
      "properties": {
        "@id": "node/25869769",
        "name": "Eskişehir",
        "name:ar": "إسكي شهر",
        "name:el": "Εσκισεχίρ",
        "name:en": "Eskisehir",
        "name:hu": "Eskişehir",
        "name:ku": "Eskîşehîr",
        "name:lt": "Eskišechiras",
        "name:ml": "ഇസ്കിഷഹർ",
        "name:ru": "Эскишехир",
        "name:tr": "Eskişehir",
        "name:uk": "Ескішехір",
        "place": "city",
        "population": "888828",
        "population:date": "2021",
        "salb:id": "TUR032",
        "salb:name": "Eskisehir",
        "source": "Wikipedia (tr)",
        "wikidata": "Q168866",
        "wikipedia": "tr:Eskişehir"
      },
      "geometry": {
        "type": "Point",
        "coordinates": [
          30.5255947,
          39.7666813
        ]
      },
      "id": "node/25869769"
    },
    {
      "type": "Feature",
      "properties": {
        "@id": "node/25869814",
        "alt_name": "Konyah;Konia",
        "int_name": "Konya",
        "name": "Konya",
        "name:ar": "قوني",
        "name:el": "Ικόνιο",
        "name:fa": "قونیه",
        "name:he": "קוניה",
        "name:hi": "कोन्या",
        "name:hu": "Konya",
        "name:ja": "コンヤ",
        "name:ku": "Qonye",
        "name:lt": "Konija",
        "name:ml": "കോന്യ",
        "name:ru": "Конья",
        "name:uk": "Конья",
        "name:zh": "科尼亞",
        "name:zza": "Qonya",
        "old_name": "Iconium;İkonium",
        "place": "city",
        "population": "2161303",
        "source": "Wikipedia (tr)",
        "wikidata": "Q79857",
        "wikipedia": "tr:Konya"
      },
      "geometry": {
        "type": "Point",
        "coordinates": [
          32.4874202,
          37.8768277
        ]
      },
      "id": "node/25869814"
    },
    {
      "type": "Feature",
      "properties": {
        "@id": "node/25869815",
        "name": "Kütahya",
        "name:ar": "كوتاهية",
        "name:el": "Κιουτάχεια",
        "name:grc": "Κοτυάειον",
        "name:hu": "Kütahya",
        "name:la": "Cotyaeum",
        "name:lt": "Kiutahija",
        "name:ml": "ക്യുട്ടാഹ്യ",
        "name:ru": "Кютахья",
        "name:tr": "Kütahya",
        "name:uk": "Кютах'я",
        "place": "city",
        "population": "573642",
        "salb:id": "TUR055",
        "salb:name": "Kutahya",
        "source": "Wikipedia (tr)",
        "wikidata": "Q188894",
        "wikipedia": "tr:Kütahya"
      },
      "geometry": {
        "type": "Point",
        "coordinates": [
          29.9872928,
          39.4191505
        ]
      },
      "id": "node/25869815"
    },
    {
      "type": "Feature",
      "properties": {
        "@id": "node/25869819",
        "name": "Manisa",
        "name:ar": "مانيسا",
        "name:el": "Μανίσα",
        "name:grc": "Μαγνησία ἐπὶ Σιπύλῳ",
        "name:hu": "Manisa",
        "name:ja": "マニサ",
        "name:la": "Magnesia ad Sipylum",
        "name:ru": "Маниса",
        "place": "city",
        "population": "1396945",
        "salb:id": "TUR057",
        "salb:name": "Manisa",
        "source": "Wikipedia",
        "wikidata": "Q130553",
        "wikipedia": "tr:Manisa"
      },
      "geometry": {
        "type": "Point",
        "coordinates": [
          27.4334933,
          38.6125232
        ]
      },
      "id": "node/25869819"
    },
    {
      "type": "Feature",
      "properties": {
        "@id": "node/25869820",
        "country": "Turkey",
        "name": "Uşak",
        "name:ar": "أوشاك",
        "name:hu": "Uşak",
        "name:ml": "ഉഷാക്ക്",
        "name:ru": "Ушак",
        "name:tr": "Uşak",
        "place": "city",
        "population": "358736",
        "salb:id": "TUR077",
        "salb:name": "Usak",
        "source": "Wikipedia (tr)",
        "wikidata": "Q189134",
        "wikipedia": "tr:Uşak"
      },
      "geometry": {
        "type": "Point",
        "coordinates": [
          29.4054312,
          38.6795138
        ]
      },
      "id": "node/25869820"
    },
    {
      "type": "Feature",
      "properties": {
        "@id": "node/25869857",
        "geonames:id": "738025",
        "name": "Yalova",
        "name:ar": "يالوفا",
        "name:hu": "Yalova",
        "name:ml": "യാലോവ",
        "name:ru": "Ялова",
        "place": "city",
        "population": "241665",
        "salb:id": "TUR079",
        "salb:name": "Yalova",
        "source": "Wikipedia (tr)",
        "wikidata": "Q205942",
        "wikipedia": "en:Yalova"
      },
      "geometry": {
        "type": "Point",
        "coordinates": [
          29.2700004,
          40.6583361
        ]
      },
      "id": "node/25869857"
    },
    {
      "type": "Feature",
      "properties": {
        "@id": "node/26399215",
        "admin_level": "4",
        "alt_name:en": "Orumiyeh",
        "capital": "4",
        "name": "ارومیه",
        "name:ar": "أرومية",
        "name:ckb": "ورمێ",
        "name:cs": "Orumíje",
        "name:de": "Urmia",
        "name:en": "Urmia",
        "name:es": "Urmía",
        "name:et": "Urmia",
        "name:fi": "Urmia",
        "name:fr": "Orumie",
        "name:hi": "ओरुमिये",
        "name:ja": "オルーミーイェ",
        "name:ku": "Ûrmiye",
        "name:ml": "ഒറൂമിയ",
        "name:pl": "Orumia",
        "name:ru": "Урмия",
        "name:tr": "Urmiye",
        "name:uk": "Урмія",
        "name:yue": "烏爾米耶",
        "name:zh": "乌尔米耶",
        "name:zh-Hans": "乌尔米耶",
        "name:zh-Hant": "烏爾米耶",
        "old_name": "رضائیه",
        "old_name:cs": "Rezáíje",
        "old_name:en": "Rezaiyeh",
        "place": "city",
        "population": "736224",
        "wikidata": "Q179665"
      },
      "geometry": {
        "type": "Point",
        "coordinates": [
          45.0682863,
          37.5493473
        ]
      },
      "id": "node/26399215"
    },
    {
      "type": "Feature",
      "properties": {
        "@id": "node/26480399",
        "admin_level": "4",
        "name": "Adana",
        "name:ar": "أضنة",
        "name:ckb": "ئادانا",
        "name:diq": "Edene",
        "name:el": "Άδανα",
        "name:en": "Adana",
        "name:hi": "अदाना",
        "name:hu": "Adana",
        "name:hy": "Ադանա",
        "name:ka": "ადანა",
        "name:ku": "Edene",
        "name:ml": "അദന",
        "name:pt": "Adana",
        "name:ru": "Адана",
        "place": "city",
        "population": "2258718",
        "population:date": "2021",
        "salb:adm1name": "Adana",
        "salb:id": "TUR001010",
        "salb:name": "Adana",
        "wikidata": "Q38545",
        "wikipedia": "tr:Adana"
      },
      "geometry": {
        "type": "Point",
        "coordinates": [
          35.3252861,
          36.9863599
        ]
      },
      "id": "node/26480399"
    },
    {
      "type": "Feature",
      "properties": {
        "@id": "node/26480484",
        "alt_name": "Hakkâri",
        "name": "Hakkari",
        "name:ar": "هكاري",
        "name:hu": "Hakkari",
        "name:hy": "Ջլմար",
        "name:ku": "Colemêrg",
        "name:ml": "ഹക്കാരി",
        "name:ru": "Хаккяри",
        "old_name": "Çölemerik",
        "place": "city",
        "population": "267813",
        "salb:name": "Hakkari",
        "source": "Wikipedia (tr)",
        "wikidata": "Q93209",
        "wikipedia": "tr:Hakkâri (il)"
      },
      "geometry": {
        "type": "Point",
        "coordinates": [
          43.7377693,
          37.5766996
        ]
      },
      "id": "node/26480484"
    },
    {
      "type": "Feature",
      "properties": {
        "@id": "node/26480571",
        "comment": "Reverted city name to Latin script in accordance with local official name",
        "name": "Van",
        "name:ar": "وان",
        "name:ckb": "وان",
        "name:el": "Βαν",
        "name:fa": "وان",
        "name:hi": "वान",
        "name:hu": "Van",
        "name:hy": "Վան",
        "name:ku": "Wan",
        "name:ml": "വാൻ",
        "name:pt": "Van",
        "name:ru": "Ван",
        "name:tr": "Van",
        "place": "city",
        "population": "1100190",
        "salb:id": "TUR078",
        "salb:name": "Van",
        "source": "Wikipedia (tr)",
        "wikidata": "Q83061",
        "wikipedia": "ku:Wan"
      },
      "geometry": {
        "type": "Point",
        "coordinates": [
          43.3745322,
          38.5083601
        ]
      },
      "id": "node/26480571"
    },
    {
      "type": "Feature",
      "properties": {
        "@id": "node/26480597",
        "name": "Iğdır",
        "name:ar": "اغدير",
        "name:hi": "इग्दिर",
        "name:hu": "Iğdır",
        "name:hy": "Ցոլակերտ",
        "name:ku": "Îdir",
        "name:ml": "ഇഗ്ദിർ",
        "name:ru": "Ыгдыр",
        "name:tr": "Iğdır",
        "name:uk": "Игдир",
        "place": "city",
        "population": "192785",
        "salb:id": "TUR039",
        "salb:name": "Igdir",
        "source": "Wikipedia (tr)",
        "wikidata": "Q483331",
        "wikipedia": "tr:Iğdır"
      },
      "geometry": {
        "type": "Point",
        "coordinates": [
          44.0467724,
          39.9215668
        ]
      },
      "id": "node/26480597"
    },
    {
      "type": "Feature",
      "properties": {
        "@id": "node/26480836",
        "capital": "4",
        "country": "TR-31",
        "name": "Hatay",
        "name:ar": "هاتاي",
        "name:diq": "Xetay",
        "name:el": "Χατάι",
        "name:en": "Hatay",
        "name:hi": "हैताय",
        "name:hy": "Հաթայի մարզ",
        "name:ka": "ჰათაის პროვინცია",
        "name:ku": "Xetay",
        "name:ru": "Хатай",
        "name:zh": "哈塔伊省",
        "place": "city",
        "wikidata": "Q83274",
        "wikipedia": "tr:Hatay"
      },
      "geometry": {
        "type": "Point",
        "coordinates": [
          36.1602761,
          36.2024887
        ]
      },
      "id": "node/26480836"
    },
    {
      "type": "Feature",
      "properties": {
        "@id": "node/26480875",
        "alt_name": "Maraş",
        "ele": "1164",
        "name": "Kahramanmaraş",
        "name:ar": "مرعش",
        "name:hi": "कहरामनमारस",
        "name:hu": "Kahramanmaraş",
        "name:hy": "Մարաշ",
        "name:ku": "Gurgum",
        "name:ml": "മറാഷ്",
        "name:pt": "Kahramanmaraş",
        "name:ru": "Кахраманмараш",
        "name:tr": "Kahramanmaraş",
        "place": "city",
        "population": "1112634",
        "wikidata": "Q134703",
        "wikipedia": "en:Kahramanmaraş"
      },
      "geometry": {
        "type": "Point",
        "coordinates": [
          36.927509,
          37.5812744
        ]
      },
      "id": "node/26480875"
    },
    {
      "type": "Feature",
      "properties": {
        "@id": "node/26481523",
        "name": "Mersin",
        "name:ar": "مرسين",
        "name:ckb": "مێرسین",
        "name:el": "Μερσίνα",
        "name:en": "Mersin",
        "name:hi": "मेर्सीन",
        "name:hu": "Mersin",
        "name:hy": "Մերսին",
        "name:ka": "მერსინი",
        "name:ku": "Mêrsîn",
        "name:ml": "മെർസിൻ",
        "name:ru": "Мерсин",
        "place": "city",
        "population": "1773852",
        "salb:adm1name": "Mersin",
        "salb:adm2name": "Mersin (Merkez İlçesi)",
        "salb:id": "TUR038010",
        "salb:name": "Mersin",
        "source": "Wikipedia (tr)",
        "wikidata": "Q134291",
        "wikipedia": "tr:Mersin"
      },
      "geometry": {
        "type": "Point",
        "coordinates": [
          34.6292679,
          36.8117583
        ]
      },
      "id": "node/26481523"
    },
    {
      "type": "Feature",
      "properties": {
        "@id": "node/26481742",
        "name": "Osmaniye",
        "name:ar": "عثمانية",
        "name:el": "Επαρχία Οσμανίγιε",
        "name:hi": "उस्मानिया",
        "name:hu": "Osmaniye",
        "name:hy": "Օսմանիեի մարզ",
        "name:ka": "ოსმანიე",
        "name:ku": "Kinikan",
        "name:ml": "ഉസ്മാനിയ",
        "name:ru": "Османие",
        "old_name": "Cebel-i Bereket",
        "place": "city",
        "population": "522175",
        "salb:adm1name": "Osmaniye",
        "salb:adm2name": "Osmaniye Merkez Ilcesi",
        "salb:id": "TUR064007",
        "salb:name": "Osmaniye",
        "source": "Wikipedia (tr)",
        "wikidata": "Q281206",
        "wikipedia": "tr:Osmaniye (il)"
      },
      "geometry": {
        "type": "Point",
        "coordinates": [
          36.255941,
          37.073671
        ]
      },
      "id": "node/26481742"
    },
    {
      "type": "Feature",
      "properties": {
        "@id": "node/26482228",
        "admin_level": "4",
        "name": "Aksaray",
        "name:ar": "آق سراي",
        "name:el": "Άκσεράι",
        "name:hi": "अक्सराय",
        "name:hu": "Aksaray",
        "name:ml": "അക്സറായ്",
        "name:ru": "Аксарай",
        "old_name": "Garsaúra;Garsaura;Gausaura;Arkhelais;Archaleis;Akserai;Taxara",
        "place": "city",
        "population": "423011",
        "population:date": "2021",
        "wikidata": "Q182025",
        "wikipedia": "en:Aksaray"
      },
      "geometry": {
        "type": "Point",
        "coordinates": [
          34.026907,
          38.3705416
        ]
      },
      "id": "node/26482228"
    },
    {
      "type": "Feature",
      "properties": {
        "@id": "node/26482281",
        "name": "Karaman",
        "name:ar": "كارامان",
        "name:el": "Καραμάν",
        "name:hu": "Karaman",
        "name:ru": "Караман",
        "old_name": "Laranda;Larende;Larawanda",
        "old_name:el": "Λαρέντε",
        "place": "city",
        "population": "245610",
        "salb:adm1name": "Karaman",
        "salb:adm2name": "Karaman Merkez Ilcesi",
        "salb:id": "TUR045006",
        "salb:name": "Karaman",
        "source": "Wikipedia (tr)",
        "wikidata": "Q262579",
        "wikipedia": "en:Karaman"
      },
      "geometry": {
        "type": "Point",
        "coordinates": [
          33.2224781,
          37.1792447
        ]
      },
      "id": "node/26482281"
    },
    {
      "type": "Feature",
      "properties": {
        "@id": "node/26482287",
        "ISO3166-2": "TR-38",
        "ele": "1054",
        "name": "Kayseri",
        "name:ar": "قيصرية",
        "name:az": "Kayseri",
        "name:bg": "Кайсери",
        "name:de": "Kayseri",
        "name:el": "Καισάρεια",
        "name:en": "Kayseri",
        "name:es": "Kayseri",
        "name:fa": "قیصریه",
        "name:fr": "Kayseri",
        "name:he": "קייסרי",
        "name:hi": "कायसेरी",
        "name:hu": "Kayseri",
        "name:hy": "ԿԵՍԱՐԻԱ",
        "name:ku": "Qeyserî",
        "name:la": "Caesarea",
        "name:ml": "കൈസേറി",
        "name:nl": "Kayseri",
        "name:ota": "قیصریه",
        "name:pt": "Kayseri",
        "name:ru": "Кайсери",
        "name:sr": "Кајсери",
        "name:tr": "Kayseri",
        "place": "city",
        "population": "1389680",
        "population:date": "2018",
        "ref:nuts:1": "TR7",
        "ref:nuts:2": "TR72",
        "ref:nuts:3": "TR721",
        "salb:id": "TUR048",
        "salb:name": "Kayseri",
        "source": "Wikipedia (tr)",
        "source:population": "http://citypopulation.de/Turkey-C20.html",
        "wikidata": "Q48338",
        "wikipedia": "tr:Kayseri"
      },
      "geometry": {
        "type": "Point",
        "coordinates": [
          35.4874516,
          38.7225274
        ]
      },
      "id": "node/26482287"
    },
    {
      "type": "Feature",
      "properties": {
        "@id": "node/26482294",
        "name": "Kırıkkale",
        "name:ar": "كيركالي",
        "name:ce": "Кириккале",
        "name:el": "Κιρίκαλε",
        "name:en": "Kırıkkale",
        "name:fa": "قیریق‌قلعه",
        "name:hi": "किरिक्कली",
        "name:hu": "Kırıkkale",
        "name:hy": "Քըրըքքալեի մարզ",
        "name:ja": "クルッカレ",
        "name:ka": "ქირიქკალე",
        "name:ko": "크르칼레",
        "name:ku": "Kirikkale",
        "name:ml": "കിറിക്കലി",
        "name:ru": "Кырыккале",
        "name:sr": "Кирикале",
        "name:tg": "Қириққалъа",
        "name:tr": "Kırıkkale",
        "name:uk": "Кириккале",
        "name:ur": "قیریق قلعہ",
        "name:uz": "Qirqqalʼa",
        "name:zh": "克勒克卡萊",
        "name:zza": "Qırıxqele",
        "place": "city",
        "population": "351684",
        "salb:id": "TUR050",
        "salb:name": "Kirikkale",
        "source": "Wikipedia (tr)",
        "wikidata": "Q206891",
        "wikipedia": "tr:Kırıkkale"
      },
      "geometry": {
        "type": "Point",
        "coordinates": [
          33.5144853,
          39.8473604
        ]
      },
      "id": "node/26482294"
    },
    {
      "type": "Feature",
      "properties": {
        "@id": "node/26482519",
        "name": "Kırşehir",
        "name:ar": "قرشهر",
        "name:el": "Μωκησσός",
        "name:ku": "Qîrşehir",
        "name:ru": "Кыршехир",
        "name:tr": "Kırşehir",
        "place": "city",
        "population": "229975",
        "salb:adm1name": "Kirsehir",
        "salb:adm2name": "Kirsehir Merkez Ilcesi",
        "salb:id": "TUR052007",
        "wikidata": "Q208005",
        "wikipedia": "tr:Kırşehir"
      },
      "geometry": {
        "type": "Point",
        "coordinates": [
          34.1605587,
          39.1461142
        ]
      },
      "id": "node/26482519"
    },
    {
      "type": "Feature",
      "properties": {
        "@id": "node/26482523",
        "alt_name": "Νεάπολη",
        "name": "Nevşehir",
        "name:ar": "نوشهر",
        "name:az": "Nevşəhər",
        "name:bg": "Невшехир",
        "name:el": "Νεβσεχίρ",
        "name:fa": "نوشهر",
        "name:hi": "नवशहर",
        "name:hu": "Nevşehir",
        "name:hy": "Նևշեհիր",
        "name:ja": "ネヴシェヒル",
        "name:ka": "ნევშეჰირი",
        "name:ko": "네브셰히르",
        "name:ml": "നെവ്ശഹിർ",
        "name:nl": "Nevşehir",
        "name:ru": "Невшехир",
        "name:sr": "Невшехир",
        "name:tr": "Nevşehir",
        "name:ur": "نو شہر",
        "name:zh": "內夫謝希爾",
        "old_name": "Newschehr;Muşkara",
        "place": "city",
        "population": "290895",
        "salb:id": "TUR061",
        "salb:name": "Nevsehir",
        "source": "Wikipedia (tr)",
        "wikidata": "Q206879",
        "wikipedia": "tr:Nevşehir"
      },
      "geometry": {
        "type": "Point",
        "coordinates": [
          34.7150685,
          38.6250389
        ]
      },
      "id": "node/26482523"
    },
    {
      "type": "Feature",
      "properties": {
        "@id": "node/26482716",
        "name": "Niğde",
        "name:ar": "نيدا",
        "name:el": "Νίγδη",
        "name:hu": "Niğde",
        "name:hy": "Նիգդե",
        "name:ml": "നിഗ്ദെ",
        "name:ru": "Нигде",
        "name:tr": "Niğde",
        "old_name": "Naqda;Νίγδης;Nagida;Naxita",
        "place": "city",
        "population": "351468",
        "salb:id": "TUR062",
        "salb:name": "Nigde",
        "source": "Wikipedia (tr)",
        "wikidata": "Q194146",
        "wikipedia": "tr:Niğde"
      },
      "geometry": {
        "type": "Point",
        "coordinates": [
          34.6775534,
          37.9712079
        ]
      },
      "id": "node/26482716"
    },
    {
      "type": "Feature",
      "properties": {
        "@id": "node/26482940",
        "ele": "1285",
        "name": "Sivas",
        "name:ar": "سيواس",
        "name:ckb": "سێواس",
        "name:el": "Σεβάστεια",
        "name:hi": "सिवास",
        "name:hu": "Sivas",
        "name:hy": "Սեբաստիա",
        "name:ku": "Sêwas",
        "name:ml": "സിവാസ്",
        "name:ru": "Сивас",
        "place": "city",
        "population": "621224",
        "salb:id": "TUR072",
        "salb:name": "Sivas",
        "source": "Wikipedia (tr)",
        "website": "http://www.sivas.gov.tr/",
        "wikidata": "Q107401",
        "wikipedia": "en:Sivas"
      },
      "geometry": {
        "type": "Point",
        "coordinates": [
          37.0145185,
          39.7503572
        ]
      },
      "id": "node/26482940"
    },
    {
      "type": "Feature",
      "properties": {
        "@id": "node/26482958",
        "name": "Yozgat",
        "name:ar": "يوزغات",
        "name:el": "Γιοζγκάτ",
        "name:en": "Yozgat",
        "name:hi": "योजगत",
        "name:hu": "Yozgat",
        "name:hy": "Յոզգաթի մարզ",
        "name:ka": "იოზგათი",
        "name:ru": "Йозгат",
        "place": "city",
        "population": "79611",
        "salb:id": "TUR080",
        "salb:name": "Yozgat",
        "source": "Wikipedia (tr)",
        "source:population": "Turkish Wikipedia",
        "wikidata": "Q75445",
        "wikipedia": "tr:Yozgat (il)"
      },
      "geometry": {
        "type": "Point",
        "coordinates": [
          34.8094917,
          39.8205571
        ]
      },
      "id": "node/26482958"
    },
    {
      "type": "Feature",
      "properties": {
        "@id": "node/26482974",
        "admin_level": "4",
        "name": "Amasya",
        "name:ar": "أماصيا",
        "name:el": "Αμάσεια",
        "name:hu": "Amasya",
        "name:hy": "Ամասիայի մարզ",
        "name:ka": "ამასია",
        "name:ml": "അമാസ്യ",
        "name:ru": "Амасья",
        "place": "city",
        "population": "335494",
        "population:date": "2021",
        "salb:id": "TUR006",
        "salb:name": "Amasya",
        "source": "Wikipedia (tr)",
        "wikidata": "Q80036",
        "wikipedia": "tr:Amasya (il)"
      },
      "geometry": {
        "type": "Point",
        "coordinates": [
          35.8329148,
          40.6503248
        ]
      },
      "id": "node/26482974"
    },
    {
      "type": "Feature",
      "properties": {
        "@id": "node/26482975",
        "admin_level": "4",
        "name": "Artvin",
        "name:ar": "أرتوين",
        "name:de": "Artvin",
        "name:el": "Αρτβίν",
        "name:en": "Artvin",
        "name:es": "Artvin",
        "name:fr": "Artvin",
        "name:hu": "Artvin",
        "name:hy": "Արդվին",
        "name:ka": "ართვინი",
        "name:ku": "Artvin",
        "name:ml": "ആർട്ട്വിൻ",
        "name:ru": "Артвин",
        "place": "city",
        "population": "169501",
        "population:date": "2021",
        "salb:id": "TUR010",
        "salb:name": "Artvin",
        "source": "Wikipedia (tr)",
        "wikidata": "Q193445",
        "wikipedia": "tr:Artvin"
      },
      "geometry": {
        "type": "Point",
        "coordinates": [
          41.8287448,
          41.1830811
        ]
      },
      "id": "node/26482975"
    },
    {
      "type": "Feature",
      "properties": {
        "@id": "node/26483234",
        "alt_name": "Papert;Baberc;Baybert",
        "alt_name:hy": "Բայբերդ;Բաբերձ",
        "name": "Bayburt",
        "name:ar": "بايبورت",
        "name:hi": "बेबर्ट",
        "name:hu": "Bayburt",
        "name:hy": "Բաբերդ",
        "name:ku": "Bayburt",
        "name:ru": "Байбурт",
        "name:zza": "Bayburt",
        "place": "city",
        "population": "90154",
        "wikidata": "Q211828",
        "wikipedia": "tr:Bayburt"
      },
      "geometry": {
        "type": "Point",
        "coordinates": [
          40.224099,
          40.25569
        ]
      },
      "id": "node/26483234"
    },
    {
      "type": "Feature",
      "properties": {
        "@id": "node/26483306",
        "name": "Çorum",
        "name:ar": "جوروم",
        "name:el": "Τσορούμ",
        "name:en": "Çorum",
        "name:grc": "Εὐχάνεια",
        "name:hi": "छोरुम",
        "name:hu": "Corum",
        "name:hy": "Չորում",
        "name:ka": "ჩორუმი",
        "name:ml": "ഛോറും",
        "name:ru": "Чорум",
        "name:tr": "Çorum",
        "place": "city",
        "population": "527863",
        "salb:id": "TUR024",
        "salb:name": "Corum",
        "wikidata": "Q206900",
        "wikipedia": "tr:Çorum"
      },
      "geometry": {
        "type": "Point",
        "coordinates": [
          34.9602453,
          40.5491496
        ]
      },
      "id": "node/26483306"
    },
    {
      "type": "Feature",
      "properties": {
        "@id": "node/26483307",
        "name": "Giresun",
        "name:ar": "غيرسون",
        "name:el": "Κερασούντα",
        "name:hi": "घिरसुन",
        "name:hu": "Giresun",
        "name:hy": "Գիրեսունի մարզ",
        "name:ka": "გირესუნის პროვინცია",
        "name:ru": "Гиресун",
        "place": "city",
        "population": "444467",
        "salb:id": "TUR034",
        "salb:name": "Giresun",
        "source": "Wikipedia (tr)",
        "wikidata": "Q482779",
        "wikipedia": "tr:Giresun (il)"
      },
      "geometry": {
        "type": "Point",
        "coordinates": [
          38.3847864,
          40.9174453
        ]
      },
      "id": "node/26483307"
    },
    {
      "type": "Feature",
      "properties": {
        "@id": "node/26483350",
        "name": "Gümüşhane",
        "name:ar": "كوموش خانة",
        "name:az": "Gümüşxanə",
        "name:el": "Αργυρούπολη",
        "name:fa": "گوموش‌خانه",
        "name:hu": "Gümüşhane",
        "name:hy": "Գյումուշխանե",
        "name:ja": "ギュミュシュハーネ",
        "name:ka": "გუმუშჰანე",
        "name:ko": "귀뮈샤네",
        "name:ku": "Canca",
        "name:lt": "Giumiušchanė",
        "name:ml": "ഗുമുഷാനെ",
        "name:ru": "Гюмюшхане",
        "name:tr": "Gümüşhane",
        "name:ur": "گوموشخانے",
        "name:zh": "居米什哈內",
        "old_name": "Argyroupólis",
        "place": "city",
        "population": "172034",
        "source": "Wikipedia (tr)",
        "wikidata": "Q214303",
        "wikipedia": "tr:Gümüşhane"
      },
      "geometry": {
        "type": "Point",
        "coordinates": [
          39.4757339,
          40.4617844
        ]
      },
      "id": "node/26483350"
    },
    {
      "type": "Feature",
      "properties": {
        "@id": "node/26485694",
        "name": "Karabük",
        "name:ar": "كارابوك",
        "name:hu": "Karabük",
        "name:ru": "Карабюк",
        "name:tr": "Karabük",
        "place": "city",
        "population": "242347",
        "salb:id": "TUR044",
        "salb:name": "Karabuk",
        "source": "Wikipedia (tr)",
        "wikidata": "Q483168",
        "wikipedia": "tr:Karabük (il)"
      },
      "geometry": {
        "type": "Point",
        "coordinates": [
          32.6231154,
          41.1955402
        ]
      },
      "id": "node/26485694"
    },
    {
      "type": "Feature",
      "properties": {
        "@id": "node/26485876",
        "name": "Kastamonu",
        "name:ar": "قسطموني",
        "name:diq": "Qestamonu",
        "name:el": "Κασταμονή",
        "name:en": "Kastamonu",
        "name:hi": "कस्तमोनु",
        "name:hy": "Կաստեմուն",
        "name:ru": "Кастамону",
        "name:tr": "Kastamonu",
        "place": "city",
        "population": "110908",
        "salb:name": "Kastamonu",
        "wikidata": "Q155915",
        "wikipedia": "tr:Kastamonu"
      },
      "geometry": {
        "type": "Point",
        "coordinates": [
          33.7770087,
          41.3765359
        ]
      },
      "id": "node/26485876"
    },
    {
      "type": "Feature",
      "properties": {
        "@id": "node/26486071",
        "name": "Ordu",
        "name:ar": "أردو",
        "name:el": "Κοτύωρα",
        "name:hi": "ऑर्दु",
        "name:hu": "Ordu",
        "name:hy": "Օրդու",
        "name:ka": "ორდუ",
        "name:ml": "ഒർദു",
        "name:ru": "Орду",
        "place": "city",
        "population": "750588",
        "salb:id": "TUR063",
        "salb:name": "Ordu",
        "source": "Wikipedia (tr)",
        "wikidata": "Q184539",
        "wikipedia": "en:Ordu"
      },
      "geometry": {
        "type": "Point",
        "coordinates": [
          37.8839101,
          40.9805304
        ]
      },
      "id": "node/26486071"
    },
    {
      "type": "Feature",
      "properties": {
        "@id": "node/26486097",
        "name": "Rize",
        "name:el": "Επαρχία Ριζούντας",
        "name:hy": "Ռիզեի մարզ",
        "name:ka": "რიზეს პროვინცია",
        "name:ml": "റീസെ",
        "name:tr": "Rize",
        "place": "city",
        "population": "331048",
        "salb:id": "TUR065",
        "salb:name": "Rize",
        "source": "Wikipedia (tr)",
        "wikidata": "Q483481",
        "wikipedia": "tr:Rize (il)"
      },
      "geometry": {
        "type": "Point",
        "coordinates": [
          40.5199142,
          41.0248249
        ]
      },
      "id": "node/26486097"
    },
    {
      "type": "Feature",
      "properties": {
        "@id": "node/26486105",
        "name": "Samsun",
        "name:ar": "سامسون",
        "name:el": "Σαμψούντα",
        "name:hi": "सैमसून",
        "name:hy": "Սամսուն",
        "name:ja": "サムスン",
        "name:ka": "სამსუნი",
        "name:ml": "സാംസുൺ",
        "name:ru": "Самсун",
        "place": "city",
        "population": "1295927",
        "salb:id": "TUR067",
        "salb:name": "Samsun",
        "source": "Wikipedia (tr)",
        "wikidata": "Q160450",
        "wikipedia": "tr:Samsun"
      },
      "geometry": {
        "type": "Point",
        "coordinates": [
          36.3320596,
          41.2946149
        ]
      },
      "id": "node/26486105"
    },
    {
      "type": "Feature",
      "properties": {
        "@id": "node/26486164",
        "name": "Sinop",
        "name:ar": "سينوب",
        "name:de": "Sinope",
        "name:el": "Σινώπη",
        "name:en": "Sinop",
        "name:es": "Sinope",
        "name:hi": "साइनॉप",
        "name:hy": "Սինոպ",
        "name:it": "Sinope",
        "name:ka": "სინოპი",
        "name:la": "Sinope",
        "name:ml": "സൈനോപ്പ്",
        "name:pt": "Sinope",
        "name:ru": "Синоп",
        "name:zh": "锡诺普",
        "place": "city",
        "population": "205478",
        "salb:id": "TUR070",
        "salb:name": "Sinop",
        "source": "Wikipedia (tr)",
        "wikidata": "Q599416",
        "wikipedia": "tr:Sinop"
      },
      "geometry": {
        "type": "Point",
        "coordinates": [
          35.1511512,
          42.0265798
        ]
      },
      "id": "node/26486164"
    },
    {
      "type": "Feature",
      "properties": {
        "@id": "node/26486186",
        "alt_name:el": "Ευδοκιάδα",
        "name": "Tokat",
        "name:ar": "توقاد",
        "name:el": "Τοκάτη",
        "name:hi": "टोकाट",
        "name:hy": "Եվդոկիա",
        "name:ka": "თოქათი",
        "name:ru": "Токат",
        "name:tr": "Tokat",
        "place": "city",
        "population": "602662",
        "salb:id": "TUR074",
        "salb:name": "Tokat",
        "source": "Wikipedia (tr)",
        "wikidata": "Q183651",
        "wikipedia": "tr:Tokat (şehir)"
      },
      "geometry": {
        "type": "Point",
        "coordinates": [
          36.552162,
          40.3233534
        ]
      },
      "id": "node/26486186"
    },
    {
      "type": "Feature",
      "properties": {
        "@id": "node/26486267",
        "name": "Zonguldak",
        "name:ar": "زونغولداق",
        "name:hu": "Zonguldak",
        "name:ru": "Зонгулдак",
        "name:uk": "Зонґулдак",
        "place": "city",
        "population": "126404",
        "salb:id": "TUR081",
        "salb:name": "Zonguldak",
        "source": "Wikipedia (tr)",
        "wikidata": "Q187895"
      },
      "geometry": {
        "type": "Point",
        "coordinates": [
          31.7905959,
          41.4519168
        ]
      },
      "id": "node/26486267"
    },
    {
      "type": "Feature",
      "properties": {
        "@id": "node/26486334",
        "admin_level": "4",
        "name": "Ağrı",
        "name:ar": "أغري",
        "name:hi": "अग्रि",
        "name:hy": "Աղրի",
        "name:ku": "Qerekose",
        "name:ml": "അഗ്രീ",
        "name:ru": "Агри",
        "name:tr": "Ağrı",
        "old_name": "Karaköse",
        "place": "city",
        "population": "535435",
        "population:date": "2021",
        "salb:name": "Agri",
        "wikidata": "Q199575",
        "wikipedia": "tr:Ağrı"
      },
      "geometry": {
        "type": "Point",
        "coordinates": [
          43.0504894,
          39.719125
        ]
      },
      "id": "node/26486334"
    },
    {
      "type": "Feature",
      "properties": {
        "@id": "node/26486338",
        "admin_level": "4",
        "alt_name": "Ardahan ilçesi;Ardahan merkez",
        "alt_name:ku": "Erdêhan",
        "name": "Ardahan",
        "name:ar": "أرداهان",
        "name:de": "Ardahan",
        "name:el": "Αρνταχάν",
        "name:en": "Ardahan",
        "name:es": "Ardahan",
        "name:fr": "Ardahan",
        "name:hy": "Արդահան",
        "name:ka": "არტაანი",
        "name:ku": "Erdêxan",
        "name:ml": "അർദഹാൻ",
        "name:ru": "Ардахан",
        "place": "city",
        "population": "96161",
        "population:date": "2021",
        "salb:id": "TUR009",
        "salb:name": "Ardahan",
        "wikidata": "Q202188",
        "wikipedia": "tr:Ardahan"
      },
      "geometry": {
        "type": "Point",
        "coordinates": [
          42.7035585,
          41.1102966
        ]
      },
      "id": "node/26486338"
    },
    {
      "type": "Feature",
      "properties": {
        "@id": "node/26486414",
        "alt_name": "Çevlik;Çolik",
        "alt_name:hy": "Ճապղջուր;Ճապաղ;Կթառիճ;Խուլփ;Բինգյոլ",
        "alt_name:ku": "Çolîg;Çebexçûr",
        "name": "Bingöl",
        "name:ar": "بينكل",
        "name:hy": "Ճապաղջուր",
        "name:ku": "Çewlîg",
        "name:ru": "Бингёль",
        "name:tr": "Bingöl",
        "name:zza": "Çolig",
        "old_name": "Çolik;Çapakçur;Çabakçur",
        "place": "city",
        "population": "269560",
        "salb:id": "TUR017",
        "salb:name": "Bingol",
        "source": "Wikipedia (tr)",
        "wikidata": "Q208472",
        "wikipedia": "tr:Bingöl"
      },
      "geometry": {
        "type": "Point",
        "coordinates": [
          40.4972333,
          38.8861265
        ]
      },
      "id": "node/26486414"
    },
    {
      "type": "Feature",
      "properties": {
        "@id": "node/26486498",
        "alt_name:ar": "بيطليس;بتليس",
        "name": "Bitlis",
        "name:ar": "بدليس",
        "name:arc": "ܒܝܬ ܕܠܝܣ",
        "name:el": "Μπιτλίς",
        "name:hy": "Բաղեշ",
        "name:ka": "ბითლისი",
        "name:ku": "Bidlîs",
        "name:ota": "بدليس",
        "name:ru": "Битлис",
        "name:syc": "ܒܝܬ ܕܠܝܣ",
        "name:zh": "比特利斯",
        "name:zza": "Bıdlis",
        "place": "city",
        "population": "341225",
        "salb:id": "TUR018",
        "salb:name": "Bitlis",
        "wikidata": "Q83531",
        "wikimedia_commons": "File:Bêdlis.jpg",
        "wikipedia": "tr:Bitlis",
        "wikipedia:ar": "بدليس"
      },
      "geometry": {
        "type": "Point",
        "coordinates": [
          42.1079815,
          38.3995879
        ]
      },
      "id": "node/26486498"
    },
    {
      "type": "Feature",
      "properties": {
        "@id": "node/26486523",
        "alt_name:ku": "Xarpêt;Mezra",
        "name": "Elâzığ",
        "name:ar": "معمورة العزيز",
        "name:bg": "Елязъг",
        "name:el": "Ελαζίγκ",
        "name:en": "Elazığ",
        "name:fa": "الازیغ",
        "name:he": "אלזי",
        "name:hi": "एलाज़िग",
        "name:hy": "Խարբերդ",
        "name:ja": "エラズー県",
        "name:ka": "ელაზიღი",
        "name:ko": "엘라즈으주",
        "name:ku": "Xarpêt",
        "name:ml": "എലാസിഗ്",
        "name:ru": "Элязыг",
        "name:tr": "Elazığ",
        "name:uk": "Елязи",
        "name:zh": "埃拉泽省",
        "name:zza": "Xarpêt",
        "place": "city",
        "population": "578789",
        "salb:id": "TUR029",
        "salb:name": "Elazig",
        "source": "Wikipedia (tr)",
        "wikidata": "Q483091",
        "wikipedia": "tr:Elâzığ (il)"
      },
      "geometry": {
        "type": "Point",
        "coordinates": [
          39.2227135,
          38.6747164
        ]
      },
      "id": "node/26486523"
    },
    {
      "type": "Feature",
      "properties": {
        "@id": "node/26486736",
        "name": "Muş",
        "name:ar": "موش",
        "name:hi": "मूश",
        "name:hy": "Մուշ",
        "name:ku": "Mûş",
        "name:ml": "മൂശ്",
        "name:ru": "Муш",
        "name:tr": "Muş",
        "place": "city",
        "population": "406501",
        "wikidata": "Q118995",
        "wikipedia": "tr:Muş"
      },
      "geometry": {
        "type": "Point",
        "coordinates": [
          41.4898925,
          38.7322221
        ]
      },
      "id": "node/26486736"
    },
    {
      "type": "Feature",
      "properties": {
        "@id": "node/26486753",
        "alt_name:ku": "Ezirgan",
        "name": "Erzincan",
        "name:ar": "أرزينجان",
        "name:hy": "Երզնկա",
        "name:ku": "Erzingan",
        "name:ml": "എർസിൻഗാൻ",
        "name:ru": "Эрзинджан",
        "name:tr": "Erzincan",
        "place": "city",
        "population": "226032",
        "salb:id": "TUR030",
        "salb:name": "Erzincan",
        "source": "Wikipedia (tr)",
        "wikidata": "Q483173",
        "wikipedia": "tr:Erzincan (il)"
      },
      "geometry": {
        "type": "Point",
        "coordinates": [
          39.49103,
          39.7467552
        ]
      },
      "id": "node/26486753"
    },
    {
      "type": "Feature",
      "properties": {
        "@id": "node/26486754",
        "name": "Erzurum",
        "name:ar": "أرضروم",
        "name:el": "Θεοδοσιούπολη",
        "name:hi": "एर्ज़ुरुम",
        "name:hy": "Կարին",
        "name:ku": "Erzirom",
        "name:ru": "Эрзурум",
        "place": "city",
        "population": "762021",
        "salb:id": "TUR031",
        "salb:name": "Erzurum",
        "source": "Wikipedia (tr)",
        "wikidata": "Q122803",
        "wikipedia": "ku:Erzîrom"
      },
      "geometry": {
        "type": "Point",
        "coordinates": [
          41.2727638,
          39.9063215
        ]
      },
      "id": "node/26486754"
    },
    {
      "type": "Feature",
      "properties": {
        "@id": "node/26486777",
        "ele": "1768",
        "name": "Kars",
        "name:ar": "قارص",
        "name:el": "Καρς",
        "name:hy": "Կարս",
        "name:ku": "Qers",
        "name:ml": "ഖാർസ്",
        "name:ru": "Карс",
        "name:zza": "Qers",
        "place": "city",
        "population": "289786",
        "salb:id": "TUR046",
        "salb:name": "Kars",
        "source": "Wikipedia (tr)",
        "wikidata": "Q127063",
        "wikipedia": "tr:Kars"
      },
      "geometry": {
        "type": "Point",
        "coordinates": [
          43.0948497,
          40.6076749
        ]
      },
      "id": "node/26486777"
    },
    {
      "type": "Feature",
      "properties": {
        "@id": "node/26486997",
        "name": "Malatya",
        "name:ar": "ملطية",
        "name:el": "Μαλάτεια",
        "name:fa": "ملطی",
        "name:hi": "मलत्या",
        "name:hy": "Մալաթիա",
        "name:ja": "マラティヤ",
        "name:ko": "말라티아",
        "name:ku": "Meletî",
        "name:ml": "മലത്ത്യ",
        "name:ru": "Малатья",
        "name:tr": "Malatya",
        "name:zh": "馬拉蒂亞",
        "name:zza": "Meletiye",
        "old_name": "Melitene;Aspuzu",
        "old_name:el": "Μελιτηνή",
        "place": "city",
        "population": "781305",
        "salb:id": "TUR056",
        "salb:name": "Malatya",
        "wikidata": "Q165995",
        "wikipedia": "en:Malatya"
      },
      "geometry": {
        "type": "Point",
        "coordinates": [
          38.3178715,
          38.3483098
        ]
      },
      "id": "node/26486997"
    },
    {
      "type": "Feature",
      "properties": {
        "@id": "node/26487261",
        "alt_name:ku": "Kalan;Dêrsim",
        "name": "Tunceli",
        "name:ar": "تونجلي",
        "name:ckb": "مامەکی",
        "name:hy": "Դերսիմ",
        "name:ku": "Mamekî",
        "name:ml": "തുഞ്ചെലി",
        "name:ru": "Тунджели",
        "name:zza": "Mamekiye",
        "old_name": "Mamiki;Mameki;Dersim;Kalan;Qalan",
        "place": "city",
        "population": "34461",
        "population:date": "2015-01-01",
        "postal_code": "62000",
        "salb:id": "TUR076",
        "salb:name": "Tunceli",
        "source_ref": "http://www.yerelnet.org.tr/ilceler/ilce.php?ilceid=2138932",
        "wikidata": "Q620742",
        "wikipedia": "tr:Tunceli (il)"
      },
      "geometry": {
        "type": "Point",
        "coordinates": [
          39.5482693,
          39.1060641
        ]
      },
      "id": "node/26487261"
    },
    {
      "type": "Feature",
      "properties": {
        "@id": "node/26487468",
        "admin_level": "4",
        "country": "TR",
        "name": "Adıyaman",
        "name:ar": "أديامان",
        "name:ckb": "سەمسوور",
        "name:en": "Adiyaman",
        "name:hy": "Ադիյաման",
        "name:ku": "Semsûr",
        "name:ml": "അദിയാമാൻ",
        "name:ru": "Адыяман",
        "name:tr": "Adıyaman",
        "place": "city",
        "population": "632459",
        "population:date": "2021",
        "wikidata": "Q168197",
        "wikipedia": "tr:Adıyaman"
      },
      "geometry": {
        "type": "Point",
        "coordinates": [
          38.2772905,
          37.763678
        ]
      },
      "id": "node/26487468"
    },
    {
      "type": "Feature",
      "properties": {
        "@id": "node/26487469",
        "ele": "575",
        "name": "Batman",
        "name:ar": "بطمان",
        "name:ckb": "ئێلح",
        "name:el": "Μπατμάν",
        "name:hi": "बैटमैन",
        "name:hy": "Բաթման",
        "name:ka": "ბათმანი",
        "name:ku": "Êlih",
        "name:ml": "ബട്മാൻ",
        "name:ru": "Батман",
        "place": "city",
        "population": "576899",
        "population:date": "2016",
        "salb:id": "TUR014",
        "salb:name": "Batman",
        "source": "Wikipedia (tr)",
        "wikidata": "Q159835",
        "wikipedia": "tr:Batman"
      },
      "geometry": {
        "type": "Point",
        "coordinates": [
          41.127748,
          37.8835859
        ]
      },
      "id": "node/26487469"
    },
    {
      "type": "Feature",
      "properties": {
        "@id": "node/26487666",
        "name": "Diyarbakır",
        "name:ar": "ديار بكر",
        "name:bg": "Диарбекир",
        "name:ckb": "ئامەد",
        "name:el": "Ντιγιάρμπακιρ",
        "name:en": "Diyarbakir",
        "name:hi": "डियारबकिर",
        "name:hy": "Դիարբեքիր",
        "name:ka": "დიარბაქირი",
        "name:ku": "Amed",
        "name:ml": "ദിയാർബക്കിർ",
        "name:ru": "Диярбакыр",
        "name:tr": "Diyarbakır",
        "name:zza": "Diyarbekir",
        "place": "city",
        "population": "1732396",
        "population:date": "2018",
        "salb:id": "TUR026",
        "salb:name": "Diyarbakir",
        "source": "Wikipedia (tr)",
        "wikidata": "Q83387",
        "wikipedia": "tr:Diyarbakır"
      },
      "geometry": {
        "type": "Point",
        "coordinates": [
          40.2363542,
          37.9162222
        ]
      },
      "id": "node/26487666"
    },
    {
      "type": "Feature",
      "properties": {
        "@id": "node/26487670",
        "alt_name": "Antep",
        "loc_name": "Antep",
        "name": "Gaziantep",
        "name:ar": "عنتاب",
        "name:ca": "Gaziantep",
        "name:ckb": "دیلۆک",
        "name:de": "Gaziantep",
        "name:diq": "Qazianteb",
        "name:el": "Γκαζιαντέπ",
        "name:en": "Gaziantep",
        "name:es": "Gaziantep",
        "name:fr": "Gaziantep",
        "name:hi": "गाझियान्तेप",
        "name:hy": "Այնթապ",
        "name:ka": "გაზიანთეფი",
        "name:ku": "Dîlok",
        "name:pt": "Gaziantep",
        "name:ru": "Газиантеп",
        "place": "city",
        "population": "1556381",
        "salb:id": "TUR033",
        "salb:name": "Gaziantep",
        "source": "Wikipedia (tr)",
        "source:population": "DBpedia",
        "wikidata": "Q93338",
        "wikipedia": "en:Gaziantep"
      },
      "geometry": {
        "type": "Point",
        "coordinates": [
          37.3792617,
          37.0628317
        ]
      },
      "id": "node/26487670"
    },
    {
      "type": "Feature",
      "properties": {
        "@id": "node/26487717",
        "alt_name:ar": "كلز;كيليس",
        "name": "Kilis",
        "name:ar": "كلس",
        "name:azb": "کیلیس",
        "name:ckb": "کلیس",
        "name:de": "Kilis",
        "name:el": "Κιλίς",
        "name:en": "Kilis",
        "name:es": "Kilis",
        "name:fa": "کیلیس",
        "name:fr": "Kilis",
        "name:hy": "Քիլիս",
        "name:ka": "ქილისი",
        "name:ku": "Kilîs",
        "name:lrc": "کیلیس",
        "name:pnb": "کیلس",
        "name:ru": "Килис",
        "name:ug": "كىلىس",
        "name:ur": "کیلیس",
        "place": "city",
        "population": "130825",
        "salb:id": "TUR049",
        "salb:name": "Kilis",
        "wikidata": "Q206881",
        "wikipedia": "tr:Kilis"
      },
      "geometry": {
        "type": "Point",
        "coordinates": [
          37.114664,
          36.7165722
        ]
      },
      "id": "node/26487717"
    },
    {
      "type": "Feature",
      "properties": {
        "@id": "node/26487735",
        "name": "Mardin",
        "name:ar": "ماردين",
        "name:ckb": "مێردین",
        "name:hi": "मार्डिन",
        "name:hy": "Մարդին",
        "name:ku": "Mêrdîn",
        "name:ru": "Мардин",
        "place": "city",
        "population": "838778",
        "population:date": "2019",
        "wikidata": "Q131293",
        "wikimedia_commons": "File:P1040528 Mardin pano.JPG",
        "wikipedia": "tr:Mardin"
      },
      "geometry": {
        "type": "Point",
        "coordinates": [
          40.7379338,
          37.3132144
        ]
      },
      "id": "node/26487735"
    },
    {
      "type": "Feature",
      "properties": {
        "@id": "node/26487743",
        "alt_name": "Urfa;Edessa",
        "name": "Şanlıurfa",
        "name:ar": "شانلورفا",
        "name:de": "Şanlıurfa",
        "name:el": "Σανλιούρφα",
        "name:en": "Şanlıurfa",
        "name:es": "Sanliurfa",
        "name:fr": "Şanlıurfa",
        "name:hi": "शानलिउर्फा",
        "name:hy": "Եդեսիա",
        "name:ka": "შანლიურფა",
        "name:ku": "Riha",
        "name:ml": "ഷാൻലിയുർഫ",
        "name:ru": "Шанлыурфа",
        "name:tr": "Şanlıurfa",
        "name:zza": "Rıha",
        "place": "city",
        "population": "1940627",
        "wikidata": "Q133118",
        "wikimedia_commons": "File:Şanlıurfa skyline.jpg",
        "wikipedia": "tr:Şanlıurfa"
      },
      "geometry": {
        "type": "Point",
        "coordinates": [
          38.7902129,
          37.1493892
        ]
      },
      "id": "node/26487743"
    },
    {
      "type": "Feature",
      "properties": {
        "@id": "node/26487823",
        "name": "Siirt",
        "name:ar": "سعرد",
        "name:hy": "Սղերդ",
        "name:ku": "Sêrt",
        "name:ml": "സീർട്ട്",
        "name:ru": "Сиирт",
        "place": "city",
        "population": "322664",
        "salb:id": "TUR069",
        "salb:name": "Siirt",
        "source": "Wikipedia (tr)",
        "wikidata": "Q482825",
        "wikipedia": "tr:Siirt (il)"
      },
      "geometry": {
        "type": "Point",
        "coordinates": [
          41.9422042,
          37.9273232
        ]
      },
      "id": "node/26487823"
    },
    {
      "type": "Feature",
      "properties": {
        "@id": "node/26487882",
        "name": "Şırnak",
        "name:ar": "شرناق",
        "name:arc": "ܫܝܪܢܐܟ",
        "name:fa": "شرناق",
        "name:ku": "Şirnex",
        "name:ml": "ഷിർനാക്ക്",
        "name:ru": "Шырнак",
        "name:tr": "Şırnak",
        "place": "city",
        "population": "483788",
        "salb:id": "TUR071",
        "source": "Wikipedia (tr)",
        "wikidata": "Q647378"
      },
      "geometry": {
        "type": "Point",
        "coordinates": [
          42.4570311,
          37.5219577
        ]
      },
      "id": "node/26487882"
    },
    {
      "type": "Feature",
      "properties": {
        "@id": "node/28490587",
        "addr:postcode": "85300",
        "capital": "6",
        "int_name": "Kos",
        "name": "Κως",
        "name:de": "Kos",
        "name:el": "Κως",
        "name:en": "Kos",
        "name:es": "Cos",
        "name:fr": "Cos",
        "name:it": "Coo",
        "name:ko": "코스섬",
        "name:mk": "Кос",
        "name:pl": "Kos",
        "name:pt": "Cós",
        "name:ro": "Kos",
        "name:ru": "Кос",
        "name:sr": "Кос",
        "name:sr-Latn": "Kos",
        "name:tr": "İstanköy",
        "place": "city",
        "population": "19432",
        "wikidata": "Q568212",
        "wikimedia_commons": "https://commons.wikimedia.org/wiki/Category:Kos_(city)?uselang=de",
        "wikipedia": "de:Kos (Stadt)"
      },
      "geometry": {
        "type": "Point",
        "coordinates": [
          27.2866636,
          36.8940286
        ]
      },
      "id": "node/28490587"
    },
    {
      "type": "Feature",
      "properties": {
        "@id": "node/29438069",
        "alt_name:ar": "إيراكليو;هيراكليون",
        "alt_name:ca": "Iràklion",
        "alt_name:cs": "Hérakleion",
        "alt_name:hu": "Hérakleion",
        "capital": "4",
        "int_name": "Iraklion",
        "name": "Ηράκλειο",
        "name:ar": "كاندية",
        "name:bg": "Ираклио",
        "name:ca": "Càndia",
        "name:cs": "Iraklion",
        "name:da": "Iraklion",
        "name:de": "Iraklion",
        "name:el": "Ηράκλειο",
        "name:en": "Heraklion",
        "name:eo": "Iraklion",
        "name:es": "Heraclión",
        "name:et": "Irákleion",
        "name:fi": "Heraklion",
        "name:fr": "Héraklion",
        "name:he": "הרקליון",
        "name:hr": "Heraklion",
        "name:hu": "Iráklio",
        "name:ja": "イラクリオン",
        "name:ku": "Herakliyon",
        "name:lt": "Heraklionas",
        "name:mk": "Ираклион",
        "name:pl": "Heraklion",
        "name:ru": "Ираклион",
        "name:sq": "Iraklioni",
        "name:sr": "Ираклион",
        "name:sr-Latn": "Heraklion",
        "name:sv": "Heraklion",
        "name:tr": "Kandiye",
        "name:zh": "伊拉克利翁",
        "official_name": "Ηράκλειον",
        "official_name:en": "Iraklion",
        "old_name": "Χάνδακας;Κάντια",
        "old_name:en": "Candia",
        "place": "city",
        "population": "140730",
        "wikidata": "Q160544",
        "wikipedia": "el:Ηράκλειο Κρήτης"
      },
      "geometry": {
        "type": "Point",
        "coordinates": [
          25.1343475,
          35.3400127
        ]
      },
      "id": "node/29438069"
    },
    {
      "type": "Feature",
      "properties": {
        "@id": "node/31058172",
        "capital": "4",
        "ekatte": "07079",
        "int_name": "Burgas",
        "name": "Бургас",
        "name:bg": "Бургас",
        "name:ca": "Burgàs",
        "name:cs": "Burgas",
        "name:de": "Burgas",
        "name:el": "Πύργος",
        "name:en": "Burgas",
        "name:et": "Burgas",
        "name:fa": "بورگاس",
        "name:fr": "Bourgas",
        "name:hr": "Burgas",
        "name:hu": "Burgasz",
        "name:lt": "Burgasas",
        "name:lv": "Burgasa",
        "name:nl": "Boergas",
        "name:pl": "Burgas",
        "name:ro": "Burgas",
        "name:ru": "Бургас",
        "name:sk": "Burgas",
        "name:sr": "Бургас",
        "name:tr": "Burgaz",
        "name:uk": "Бургас",
        "name:zh": "布爾加斯",
        "name:zh-Hans": "布尔加斯",
        "name:zh-Hant": "布爾加斯",
        "place": "city",
        "population": "206371",
        "ref:LOCODE": "BGBOJ",
        "website": "https://www.burgas.bg/",
        "wikidata": "Q6509",
        "wikipedia": "bg:Бургас"
      },
      "geometry": {
        "type": "Point",
        "coordinates": [
          27.4721276,
          42.4936616
        ]
      },
      "id": "node/31058172"
    },
    {
      "type": "Feature",
      "properties": {
        "@id": "node/31058175",
        "capital": "4",
        "ekatte": "77195",
        "int_name": "Haskovo",
        "name": "Хасково",
        "name:bg": "Хасково",
        "name:ca": "Khàskovo",
        "name:cs": "Chaskovo",
        "name:de": "Chaskowo",
        "name:el": "Χάσκοβο",
        "name:en": "Haskovo",
        "name:eo": "Ĥaskovo",
        "name:et": "Haskovo",
        "name:fr": "Khaskovo",
        "name:hr": "Haskovo",
        "name:lt": "Chaskovas",
        "name:nl": "Chaskovo",
        "name:pl": "Chaskowo",
        "name:pt": "Haskovo",
        "name:ro": "Haskovo",
        "name:ru": "Хасково",
        "name:sk": "Chaskovo",
        "name:sr": "Хасково",
        "name:sr-Latn": "Haskovo",
        "name:sv": "Chaskovo",
        "name:tr": "Hasköy",
        "place": "city",
        "population": "76587",
        "website": "https://www.haskovo.bg/",
        "wikidata": "Q186254",
        "wikipedia": "bg:Хасково"
      },
      "geometry": {
        "type": "Point",
        "coordinates": [
          25.5556639,
          41.9345727
        ]
      },
      "id": "node/31058175"
    },
    {
      "type": "Feature",
      "properties": {
        "@id": "node/31058176",
        "capital": "4",
        "ekatte": "87374",
        "int_name": "Yambol",
        "name": "Ямбол",
        "name:bg": "Ямбол",
        "name:de": "Jambol",
        "name:el": "Γιάμπολ",
        "name:en": "Yambol",
        "name:et": "Jambol",
        "name:fr": "Yambol",
        "name:hr": "Jambol",
        "name:hu": "Bolu",
        "name:lt": "Jambolas",
        "name:mk": "Јамбол",
        "name:nl": "Jambol",
        "name:pl": "Jamboł",
        "name:pt": "Yambol",
        "name:ru": "Ямбол",
        "name:sr": "Јамбол",
        "name:tr": "Yanbolu",
        "place": "city",
        "population": "76599",
        "wikidata": "Q186569",
        "wikipedia": "bg:Ямбол"
      },
      "geometry": {
        "type": "Point",
        "coordinates": [
          26.5105553,
          42.483935
        ]
      },
      "id": "node/31058176"
    },
    {
      "type": "Feature",
      "properties": {
        "@id": "node/31058177",
        "alt_name:tr": "Kırcali",
        "capital": "4",
        "ekatte": "40909",
        "int_name": "Kardzhali",
        "name": "Кърджали",
        "name:bg": "Кърджали",
        "name:de": "Kardschali",
        "name:el": "Κάρτζαλι",
        "name:en": "Kardzhali",
        "name:et": "Kǎrdžali",
        "name:fr": "Kardjali",
        "name:hr": "Kardžali",
        "name:mk": "Крџали",
        "name:nl": "Kardzjali",
        "name:pl": "Kyrdżali",
        "name:pt": "Kurdzhali",
        "name:ro": "Kârgeali",
        "name:ru": "Кырджали",
        "name:sr": "Крџали",
        "name:sr-Latn": "Krdžali",
        "name:sv": "Kardzjali",
        "name:tr": "Kırcaali",
        "old_name": "Kırcaali",
        "place": "city",
        "population": "49421",
        "wikidata": "Q192875",
        "wikipedia": "bg:Кърджали"
      },
      "geometry": {
        "type": "Point",
        "coordinates": [
          25.3722156,
          41.643746
        ]
      },
      "id": "node/31058177"
    },
    {
      "type": "Feature",
      "properties": {
        "@id": "node/32520143",
        "alt_name": "Halab",
        "is_in:country_code": "SY",
        "name": "حلب",
        "name:ar": "حلب",
        "name:arc": "ܚܠܒ",
        "name:ca": "Alep",
        "name:ckb": "حەلەب",
        "name:cs": "Aleppo",
        "name:da": "Aleppo",
        "name:de": "Aleppo",
        "name:el": "Χαλέπι",
        "name:en": "Aleppo",
        "name:es": "Alepo",
        "name:et": "Aleppo",
        "name:fi": "Aleppo",
        "name:fr": "Alep",
        "name:he": "חאלב",
        "name:hi": "हलब",
        "name:hr": "Alep",
        "name:hu": "Aleppó",
        "name:hy": "Հալեպ",
        "name:ja": "アレッポ",
        "name:ka": "ალეპო",
        "name:kn": "ಹಲಬ",
        "name:ko": "알레포",
        "name:ku": "Heleb",
        "name:lt": "Alepas",
        "name:ml": "ആലെപ്പോ",
        "name:mr": "हलब",
        "name:nl": "Aleppo",
        "name:oc": "Alèp",
        "name:ru": "Алеппо",
        "name:sv": "Aleppo",
        "name:tr": "Halep",
        "name:tt": "Хәлеб",
        "name:uk": "Халеб",
        "name:zh": "阿勒颇",
        "place": "city",
        "population": "2301000",
        "source:name:oc": "Lo Congrès",
        "wikidata": "Q41183",
        "wikipedia": "en:Aleppo"
      },
      "geometry": {
        "type": "Point",
        "coordinates": [
          37.1637253,
          36.19924
        ]
      },
      "id": "node/32520143"
    },
    {
      "type": "Feature",
      "properties": {
        "@id": "node/32826994",
        "ele": "1148",
        "is_in:continent": "Asia",
        "is_in:country": "Iran",
        "is_in:state": "West Azarbaijan",
        "name": "خوی",
        "name:de": "Khoy",
        "name:en": "Khoy",
        "name:fr": "Khoy",
        "name:ja": "ホイ",
        "name:ku": "Xoy",
        "name:pl": "Choj",
        "name:ru": "Хой",
        "name:tr": "Hoy",
        "name:uk": "Хой",
        "place": "city",
        "population": "198845",
        "wikidata": "Q605105",
        "wikipedia": "en:Khoy"
      },
      "geometry": {
        "type": "Point",
        "coordinates": [
          44.95354,
          38.5504343
        ]
      },
      "id": "node/32826994"
    },
    {
      "type": "Feature",
      "properties": {
        "@id": "node/36540470",
        "city": "Manavgat",
        "country": "Turkey",
        "geonames:id": "304854",
        "name": "Manavgat",
        "name:fa": "ماناوگات",
        "name:ru": "Манавгат",
        "old_name": "Düşenbe;Pazarcı;Mánaua;Manaba;Mánausa",
        "place": "city",
        "population": "224664",
        "population:date": "2016",
        "salb:adm1name": "Antalya",
        "salb:adm2name": "Manavgat",
        "salb:id": "TUR008013",
        "source": "Wikipedia (tr)",
        "wikidata": "Q81643",
        "wikipedia": "tr:Manavgat"
      },
      "geometry": {
        "type": "Point",
        "coordinates": [
          31.4406667,
          36.7870124
        ]
      },
      "id": "node/36540470"
    },
    {
      "type": "Feature",
      "properties": {
        "@id": "node/94312904",
        "alt_name:arc": "ܡܘܨܠܐ;ܡܕܝܢܬܐ ܕܡܘܨܠ;ܢܝܢܒ݂ܐ",
        "alt_name:syc": "ܡܘܨܠܐ;ܡܕܝܢܬܐ ܕܡܘܨܠ;ܢܝܢܒ݂ܐ",
        "capital": "4",
        "name": "الموصل",
        "name:ar": "الموصل",
        "name:arc": "ܡܘܨܠ",
        "name:cs": "Mosul",
        "name:de": "Mossul",
        "name:en": "Mosul",
        "name:es": "Mosul",
        "name:et": "Mosul",
        "name:fi": "Mosul",
        "name:fr": "Mossoul",
        "name:he": "מוסול",
        "name:hi": "मोसुल",
        "name:ku": "Mûsil",
        "name:ml": "മോസുൽ",
        "name:nl": "Mosoel",
        "name:no": "Mosul",
        "name:ru": "Мосул",
        "name:syc": "ܡܘܨܠ",
        "name:tr": "Musul",
        "place": "city",
        "population": "664221",
        "population:date": "2016",
        "wikidata": "Q83317",
        "wikipedia": "ar:الموصل",
        "wikipedia:ar": "الموصل",
        "wikipedia:arc": "ܡܘܨܠ"
      },
      "geometry": {
        "type": "Point",
        "coordinates": [
          43.1291386,
          36.3415843
        ]
      },
      "id": "node/94312904"
    },
    {
      "type": "Feature",
      "properties": {
        "@id": "node/99474380",
        "alt_name": "نوهدرا",
        "capital": "4",
        "int_name": "Dahūk, Dihōk, Dohuk, Duhok, Dûhok, Duhuk, دَهُکْ, دهوک, دھۆک, Dahuk",
        "name": "دهۆک",
        "name:ar": "دهوك",
        "name:arc": "ܣܘܪܝܝܐ",
        "name:azb": "دهوک",
        "name:ckb": "دهۆک‎",
        "name:cs": "Dahúk",
        "name:de": "Dohuk",
        "name:en": "Duhok",
        "name:et": "Dahūk",
        "name:fa": "دهوک",
        "name:fr": "Dahouk",
        "name:hi": "दुहोक",
        "name:ja": "ドホーク",
        "name:kmr": "Dihok",
        "name:ku": "Dihok",
        "name:ml": "ദഹുക്ക്",
        "name:mzn": "دهوک",
        "name:pl": "Dahuk",
        "name:pnb": "دهوك",
        "name:ru": "Дахук",
        "name:tr": "Duhok",
        "name:uk": "Дахук",
        "name:ur": "دہوک",
        "place": "city",
        "population": "226899",
        "population:date": "2008",
        "postal_code": "42001",
        "wikidata": "Q152831",
        "wikipedia": "ckb:دھۆک"
      },
      "geometry": {
        "type": "Point",
        "coordinates": [
          42.9924528,
          36.8542598
        ]
      },
      "id": "node/99474380"
    },
    {
      "type": "Feature",
      "properties": {
        "@id": "node/126244310",
        "addr:postcode": "85100",
        "capital": "6",
        "int_name": "Rodos",
        "name": "Ρόδος",
        "name:cs": "Rhodos",
        "name:de": "Rhodos",
        "name:el": "Ρόδος",
        "name:en": "Rhodes",
        "name:es": "Rodas",
        "name:fi": "Rodos",
        "name:fr": "Rhodes",
        "name:hu": "Rodosz",
        "name:it": "Rodi",
        "name:ko": "로도스",
        "name:mk": "Родос",
        "name:nl": "Rhodos",
        "name:pl": "Rodos",
        "name:ro": "Rodos",
        "name:ru": "Родос",
        "name:sk": "Rodos",
        "name:sr": "Родос",
        "name:sr-Latn": "Rodos",
        "name:sv": "Rhodos",
        "name:tr": "Rodos",
        "old_name": "Rodi",
        "place": "city",
        "population": "54000",
        "wikidata": "Q188731"
      },
      "geometry": {
        "type": "Point",
        "coordinates": [
          28.2233083,
          36.4379874
        ]
      },
      "id": "node/126244310"
    },
    {
      "type": "Feature",
      "properties": {
        "@id": "node/130037434",
        "alt_name:es": "Gyumri",
        "int_name": "Gyumri",
        "name": "Գյումրի",
        "name:ar": "غيومري",
        "name:cs": "Gjumri",
        "name:de": "Gjumri",
        "name:el": "Γκιούμρι",
        "name:en": "Gyumri",
        "name:es": "Guiumri",
        "name:et": "Gjumri",
        "name:fr": "Gyumri",
        "name:hy": "Գյումրի",
        "name:ja": "ギュムリ",
        "name:ka": "გიუმრი",
        "name:ku": "Gumrî",
        "name:lt": "Giumris",
        "name:ml": "ഗ്യൂംറി",
        "name:ru": "Гюмри",
        "name:uk": "Ґюмрі",
        "place": "city",
        "population": "121976",
        "website": "http://mygyumri.com",
        "wikidata": "Q199500",
        "wikipedia": "en:Gyumri"
      },
      "geometry": {
        "type": "Point",
        "coordinates": [
          43.8416095,
          40.7852085
        ]
      },
      "id": "node/130037434"
    },
    {
      "type": "Feature",
      "properties": {
        "@id": "node/130040361",
        "ISO3166-1:alpha2": "AM",
        "admin_level": "2",
        "alt_name:vi": "Erevan",
        "capital": "yes",
        "capital_ISO3166-1": "yes",
        "int_name": "Yerevan",
        "is_in": "Armenia",
        "is_in:continent": "Asia",
        "is_in:country": "Armenia",
        "is_in:country_code": "AM",
        "name": "Երևան",
        "name:an": "Erevan",
        "name:ar": "يريفان",
        "name:az": "İrəvan",
        "name:be": "Ерэван",
        "name:be-tarask": "Ерэван",
        "name:bg": "Ереван",
        "name:bn": "ইয়েরেভান",
        "name:bo": "ཡེ་རེ་ཝན།",
        "name:br": "Yerevan",
        "name:bs": "Erevan",
        "name:ca": "Erevan",
        "name:ce": "Ереван",
        "name:ckb": "یەریڤان",
        "name:cs": "Jerevan",
        "name:cv": "Ереван",
        "name:cy": "Yerevan",
        "name:da": "Jerevan",
        "name:de": "Eriwan",
        "name:diq": "Yerêvan",
        "name:el": "Γιερεβάν",
        "name:en": "Yerevan",
        "name:eo": "Erevano",
        "name:es": "Ereván",
        "name:et": "Jerevan",
        "name:eu": "Erevan",
        "name:fa": "ایروان",
        "name:fi": "Jerevan",
        "name:fiu-vro": "Jerevan",
        "name:fr": "Erevan",
        "name:frp": "Yèrèvan",
        "name:fy": "Jerevan",
        "name:ga": "Eireaván",
        "name:gag": "Erivan",
        "name:gd": "Yerevan",
        "name:gl": "Iereván - Երևան",
        "name:gv": "Yerevan",
        "name:he": "ירוואן",
        "name:hi": "येरवान",
        "name:hr": "Erevan",
        "name:hsb": "Jerjewan",
        "name:ht": "Erevàn",
        "name:hu": "Jereván",
        "name:hy": "Երևան",
        "name:id": "Yerevan",
        "name:ie": "Jerevan",
        "name:ilo": "Yerevan",
        "name:io": "Yerevan",
        "name:is": "Jerevan",
        "name:it": "Yerevan",
        "name:ja": "エレバン",
        "name:jv": "Yerevan",
        "name:ka": "ერევანი",
        "name:kk": "Ереван",
        "name:ko": "예레반",
        "name:ku": "Yêrêvan",
        "name:kv": "Ереван",
        "name:ky": "Ереван",
        "name:la": "Erevanum",
        "name:lad": "Djerevan",
        "name:lb": "Eriwan",
        "name:lez": "Ереван",
        "name:lij": "Erevan",
        "name:lmo": "Erevan",
        "name:lt": "Jerevanas",
        "name:lv": "Erevāna",
        "name:mdf": "Ереван ошсь",
        "name:mhr": "Ереван",
        "name:mi": "Yerevan",
        "name:mk": "Ереван",
        "name:ml": "യെരെവാൻ",
        "name:mn": "Ереван",
        "name:mr": "येरेव्हान",
        "name:ms": "Yerevan",
        "name:myv": "Ереван ош",
        "name:mzn": "ایروان",
        "name:nah": "Erevan",
        "name:ne": "येरवान प्रान्त",
        "name:nl": "Jerevan",
        "name:nn": "Jerevan",
        "name:no": "Jerevan",
        "name:nov": "Yerevan",
        "name:oc": "Erevan",
        "name:os": "Ереван",
        "name:pl": "Erywań",
        "name:pms": "Erevan",
        "name:pnb": "یریوان",
        "name:pt": "Erevan",
        "name:qu": "Yiriwan",
        "name:ro": "Erevan",
        "name:ru": "Ереван",
        "name:rw": "Yerevan",
        "name:sa": "येरेवान",
        "name:sah": "Ереван",
        "name:scn": "Erevan",
        "name:sco": "Yerevan",
        "name:sh": "Erevan",
        "name:simple": "Yerevan",
        "name:sk": "Jerevan",
        "name:sl": "Erevan",
        "name:sq": "Jerevani",
        "name:sr": "Јереван",
        "name:su": "Yérévan",
        "name:sv": "Jerevan",
        "name:sw": "Yerevan",
        "name:ta": "யெரெவான்",
        "name:tg": "Ереван",
        "name:th": "เยเรวาน",
        "name:tl": "Yerevan",
        "name:tr": "Erivan",
        "name:tt": "Ереван",
        "name:udm": "Ереван",
        "name:ug": "يېرېۋان",
        "name:uk": "Єреван",
        "name:ur": "یریوان",
        "name:uz": "Yerevan",
        "name:vec": "Èrevan",
        "name:vep": "Jerevan",
        "name:vi": "Yerevan",
        "name:vo": "Yerevan",
        "name:war": "Yerevan",
        "name:xmf": "ერევანი",
        "name:yi": "יערעוואן",
        "name:yo": "Yerevan",
        "name:zea": "Jerevan",
        "name:zh": "埃里溫",
        "place": "city",
        "population": "1129300",
        "wikidata": "Q1953",
        "wikipedia": "en:Yerevan"
      },
      "geometry": {
        "type": "Point",
        "coordinates": [
          44.5126174,
          40.1776245
        ]
      },
      "id": "node/130040361"
    },
    {
      "type": "Feature",
      "properties": {
        "@id": "node/130187624",
        "alt_name": "القامشلو;قامشلو",
        "alt_name:ar": "القامشلو;قامشلو",
        "alt_name:arc": "ܩܡܫܠܐ;ܒܝܬ ܙܠܝ̈ܢ;ܒܝܬ ܙܠܝܢ;ܒܝܬ ܙܐܠܝ̈ܢ;ܒܝܬ ܙܐܠܝܢ",
        "alt_name:en": "Qamishly;Qamishlo",
        "alt_name:syc": "ܩܡܫܠܐ;ܒܝܬ ܙܠܝ̈ܢ;ܒܝܬ ܙܠܝܢ;ܒܝܬ ܙܐܠܝ̈ܢ;ܒܝܬ ܙܐܠܝܢ",
        "name": "القامشلي",
        "name:ar": "القامشلي",
        "name:arc": "ܩܡܫܠܝ",
        "name:ca": "AlQamixli",
        "name:ckb": "قامیشلۆ",
        "name:cs": "Kámišlí",
        "name:de": "Qamischli",
        "name:en": "Qamishli",
        "name:es": "Qamishli",
        "name:fa": "قامشلی",
        "name:fr": "Qâmichli",
        "name:hi": "कामिश्लि",
        "name:hu": "Kámisli",
        "name:hy": "Քամիշլի",
        "name:ja": "カーミシュリー",
        "name:ko": "카미실리",
        "name:ku": "Qamişlo",
        "name:ku-Arab": "قامشلۆ",
        "name:lt": "Kamišlis",
        "name:ml": "ഖാമിശ്ലി",
        "name:mzn": "قامشلی",
        "name:pl": "Kamiszli",
        "name:ru": "Камишлия",
        "name:syc": "ܩܡܫܠܝ",
        "name:tr": "Kamışlı",
        "name:uk": "Камишли",
        "name:ur": "قامشلی",
        "name:zh": "卡米什利",
        "place": "city",
        "population": "232258",
        "wikidata": "Q212757",
        "wikipedia": "ar:القامشلي",
        "wikipedia:ar": "القامشلي",
        "wikipedia:arc": "ܩܡܫܠܝ"
      },
      "geometry": {
        "type": "Point",
        "coordinates": [
          41.2328836,
          37.0402529
        ]
      },
      "id": "node/130187624"
    },
    {
      "type": "Feature",
      "properties": {
        "@id": "node/137705481",
        "addr:postcode": "67100",
        "alt_name:mk": "Царево",
        "capital": "6",
        "int_name": "Xanthi",
        "name": "Ξάνθη",
        "name:bg": "Ксанти",
        "name:de": "Xanthi",
        "name:el": "Ξάνθη",
        "name:en": "Xanthi",
        "name:es": "Xanti",
        "name:et": "Xánthi",
        "name:fr": "Xanthi",
        "name:hu": "Xánthi",
        "name:la": "Xanthe",
        "name:lt": "Ksantė",
        "name:mk": "Скеча",
        "name:pl": "Ksanti",
        "name:ro": "Xanthi",
        "name:ru": "Ксанти",
        "name:sr": "Ксанти",
        "name:sr-Latn": "Ksanti",
        "name:tr": "İskeçe",
        "old_name": "İskeçe",
        "place": "city",
        "population": "52000",
        "wikidata": "Q210296",
        "wikipedia": "el:Ξάνθη"
      },
      "geometry": {
        "type": "Point",
        "coordinates": [
          24.8862688,
          41.1380289
        ]
      },
      "id": "node/137705481"
    },
    {
      "type": "Feature",
      "properties": {
        "@id": "node/137706089",
        "addr:city": "Κομοτηνή",
        "addr:postcode": "69100",
        "capital": "5",
        "int_name": "Komotini",
        "name": "Κομοτηνή",
        "name:bg": "Гюмюрджина",
        "name:de": "Komotini",
        "name:el": "Κομοτηνή",
        "name:en": "Komotini",
        "name:es": "Komotiní",
        "name:et": "Komotiní",
        "name:fr": "Komotiní",
        "name:gl": "Komotiní",
        "name:hu": "Komotiní",
        "name:lt": "Komotinė",
        "name:mk": "Ѓумурџина",
        "name:ro": "Komotini",
        "name:ru": "Комотини",
        "name:sq": "Komotini",
        "name:sr": "Комотини",
        "name:sr-Latn": "Komotini",
        "name:tr": "Gümülcine",
        "old_name": "Gümülcine",
        "place": "city",
        "population": "53000",
        "wikidata": "Q208403",
        "wikipedia": "el:Κομοτηνή"
      },
      "geometry": {
        "type": "Point",
        "coordinates": [
          25.4041307,
          41.117833
        ]
      },
      "id": "node/137706089"
    },
    {
      "type": "Feature",
      "properties": {
        "@id": "node/139260064",
        "addr:postcode": "68100",
        "int_name": "Alexandroupoli",
        "name": "Αλεξανδρούπολη",
        "name:bg": "Дедеагач",
        "name:cs": "Alexandrupoli",
        "name:de": "Alexandroupoli",
        "name:el": "Αλεξανδρούπολη",
        "name:en": "Alexandroupoli",
        "name:es": "Alejandrópolis",
        "name:et": "Alexandroúpoli",
        "name:fr": "Alexandroúpoli",
        "name:hu": "Alexandrúpoli",
        "name:it": "Alessandropoli",
        "name:la": "Alexandropolis",
        "name:lt": "Aleksandrupolis",
        "name:mk": "Дедеагач",
        "name:no": "Alexandroúpoli",
        "name:pl": "Aleksandropolis",
        "name:pt": "Alexandrópolis",
        "name:ru": "Александруполис",
        "name:sl": "Alexandroupoli",
        "name:sr": "Александрополис",
        "name:sr-Latn": "Aleksandropolis",
        "name:tr": "Dedeağaç",
        "old_name": "Feredjik",
        "place": "city",
        "population": "53000",
        "wikidata": "Q190847",
        "wikipedia": "el:Αλεξανδρούπολη"
      },
      "geometry": {
        "type": "Point",
        "coordinates": [
          25.8753275,
          40.845692
        ]
      },
      "id": "node/139260064"
    },
    {
      "type": "Feature",
      "properties": {
        "@id": "node/160257516",
        "admin_level": "4",
        "capital": "4",
        "is_in": "Batumi;Adjara;Georgia;Europe",
        "is_in:continent": "Europe",
        "is_in:country": "Georgia",
        "is_in:country_code": "GE",
        "name": "ბათუმი",
        "name:ab": "Баҭым",
        "name:az": "Batumi",
        "name:bg": "Батуми",
        "name:ca": "Batumi",
        "name:de": "Batumi",
        "name:en": "Batumi",
        "name:es": "Batumi",
        "name:et": "Bathumi",
        "name:fa": "باتومی",
        "name:fr": "Batoumi",
        "name:hi": "बाटुमि",
        "name:hr": "Batumi",
        "name:hu": "Batumi",
        "name:hy": "Բաթում",
        "name:ka": "ბათუმი",
        "name:ku": "Batûmî",
        "name:lt": "Batumis",
        "name:ml": "ബാറ്റുമി",
        "name:nl": "Batoemi",
        "name:os": "Батуми",
        "name:pl": "Batumi",
        "name:ru": "Батуми",
        "name:sr": "Батуми",
        "name:tr": "Batum",
        "name:uk": "Батумі",
        "name:xmf": "ბათუმი",
        "name:zh": "巴統",
        "place": "city",
        "population": "121800",
        "wikidata": "Q25475",
        "wikipedia": "ka:ბათუმი"
      },
      "geometry": {
        "type": "Point",
        "coordinates": [
          41.6360085,
          41.6509502
        ]
      },
      "id": "node/160257516"
    },
    {
      "type": "Feature",
      "properties": {
        "@id": "node/171513871",
        "name": "Naxçıvan",
        "name:ar": "نخجوان",
        "name:az": "Naxçıvan",
        "name:de": "Nachitschewan",
        "name:en": "Nakhchivan",
        "name:es": "Najicheván",
        "name:fa": "نخجوان",
        "name:fr": "Nakhitchevan",
        "name:hi": "नखचिवान",
        "name:hy": "Նախիջևան",
        "name:ja": "ナヒチェヴァン",
        "name:ka": "ნახიჩევანი",
        "name:ku": "Naxçivan",
        "name:ml": "നഖ്ചിവാൻ",
        "name:nl": "Nachitsjevan",
        "name:pl": "Nachiczewan",
        "name:ru": "Нахичевань",
        "name:tr": "Nahçıvan",
        "name:uk": "Нахічевань",
        "place": "city",
        "population": "81400",
        "wikidata": "Q230104",
        "wikipedia": "az:Naxçıvan"
      },
      "geometry": {
        "type": "Point",
        "coordinates": [
          45.4069671,
          39.217497
        ]
      },
      "id": "node/171513871"
    },
    {
      "type": "Feature",
      "properties": {
        "@id": "node/182620747",
        "alt_name:tr": "Poti",
        "int_name": "Poti",
        "is_in": "Samegrelo, Georgia, Europe",
        "is_in:continent": "Europe",
        "is_in:country": "Georgia",
        "is_in:country_code": "GE",
        "is_in:region": "Samegrelo-Zemo Svaneti",
        "name": "ფოთი",
        "name:ab": "Ҧаҭ",
        "name:de": "Poti",
        "name:en": "Poti",
        "name:es": "Poti",
        "name:et": "Phothi",
        "name:fr": "Poti",
        "name:hi": "पोटि",
        "name:hy": "Փոթի",
        "name:ja": "ポチ",
        "name:ka": "ფოთი",
        "name:lt": "Potis",
        "name:ml": "പൊറ്റി",
        "name:os": "Поти",
        "name:pl": "Poti",
        "name:ru": "Поти",
        "name:sr": "Поти",
        "name:tr": "Faş",
        "name:uk": "Поті",
        "name:zh": "波季",
        "old_name:ka": "ფაზისი",
        "place": "city",
        "population": "47500",
        "website": "http://www.poti.ge",
        "wikidata": "Q185345",
        "wikipedia": "ka:ფოთი"
      },
      "geometry": {
        "type": "Point",
        "coordinates": [
          41.6748028,
          42.141614
        ]
      },
      "id": "node/182620747"
    },
    {
      "type": "Feature",
      "properties": {
        "@id": "node/184688705",
        "addr:country": "GE",
        "is_in": "Georgia, Kvemo Kartli",
        "is_in:continent": "Asia",
        "is_in:country": "Georgia",
        "is_in:country_code": "GE",
        "name": "რუსთავი",
        "name:az": "Rustavi",
        "name:cs": "Rustavi",
        "name:de": "Rustawi",
        "name:en": "Rustavi",
        "name:es": "Rustavi",
        "name:et": "Rusthavi",
        "name:fr": "Roustavi",
        "name:hi": "रूस्तावी",
        "name:hy": "Ռուսթավ",
        "name:ka": "რუსთავი",
        "name:lt": "Rustavis",
        "name:os": "Рустау",
        "name:ru": "Рустави",
        "name:sr": "Рустави",
        "name:uk": "Руставі",
        "place": "city",
        "population": "116400",
        "wikidata": "Q182521",
        "wikipedia": "ka:რუსთავი"
      },
      "geometry": {
        "type": "Point",
        "coordinates": [
          45.0112804,
          41.54309
        ]
      },
      "id": "node/184688705"
    },
    {
      "type": "Feature",
      "properties": {
        "@id": "node/191842691",
        "alt_name": "معرة النعمان",
        "alt_name:fr": "Maarat al-Nouman",
        "is_in": "Syria, Idlib",
        "name": "معرة النعمان",
        "name:ar": "معرة النعمان",
        "name:cs": "Ma'arat an-Numán",
        "name:en": "Maarrat al-Nu'man",
        "name:es": "Maarat an-Numan",
        "name:fr": "Ma'arrat al-Numan",
        "name:he": "מערת א-נועמאן",
        "name:hu": "Maarrat an-Numán",
        "name:ja": "マアッラト・アン＝ヌウマーン",
        "name:lt": "Maarat an Numanas",
        "name:ru": "Мааррет-эн-Нууман",
        "name:tr": "Maarretünnu'mân",
        "name:uk": "Мааррет-ен-Нууман",
        "name:zh": "邁阿賴努阿曼",
        "old_name": "Arra, La Marre",
        "place": "city",
        "wikidata": "Q728226",
        "wikipedia": "en:Maarat al-Numaan"
      },
      "geometry": {
        "type": "Point",
        "coordinates": [
          36.6777062,
          35.6470788
        ]
      },
      "id": "node/191842691"
    },
    {
      "type": "Feature",
      "properties": {
        "@id": "node/192288043",
        "alt_name:ar": "لاذقية العرب",
        "alt_name:cs": "Lázikíja",
        "int_name": "al-Lāḏikiyya",
        "name": "اللاذقية",
        "name:ar": "اللاذقية",
        "name:cs": "Latákia",
        "name:de": "Latakia",
        "name:el": "Λαοδικεία",
        "name:en": "Latakia",
        "name:es": "Latakia",
        "name:et": "Latakia",
        "name:fa": "لاذقیه",
        "name:fi": "Lattakia",
        "name:fr": "Lattaquié",
        "name:he": "לטקיה",
        "name:hi": "लैतकिया",
        "name:hr": "Latakija",
        "name:hu": "Latakia",
        "name:it": "Laodicea",
        "name:ja": "ラタキア",
        "name:ko": "라타키아",
        "name:ku": "Laziqiye",
        "name:la": "Laodicea",
        "name:lt": "Latakija",
        "name:ml": "ലത്താക്ക്യ",
        "name:nl": "Latakia",
        "name:pt": "Lataquia",
        "name:ru": "Латакия",
        "name:tr": "Lazkiye",
        "name:uk": "Латакія",
        "name:ur": "لاذقیہ",
        "name:zh": "拉塔基亚",
        "old_name": "Laodicea",
        "place": "city",
        "population": "700000",
        "wikidata": "Q200030",
        "wikipedia": "ar:اللاذقية"
      },
      "geometry": {
        "type": "Point",
        "coordinates": [
          35.7781044,
          35.5200185
        ]
      },
      "id": "node/192288043"
    },
    {
      "type": "Feature",
      "properties": {
        "@id": "node/208853190",
        "int_name": "Vanadzor",
        "name": "Վանաձոր",
        "name:de": "Wanadsor",
        "name:el": "Βανατζόρ",
        "name:en": "Vanadzor",
        "name:fr": "Vanadzor",
        "name:hy": "Վանաձոր",
        "name:it": "Vanadzor",
        "name:ja": "ヴァナゾル",
        "name:ka": "ვანაძორი",
        "name:ml": "വനാഡ്സോർ",
        "name:ru": "Ванадзор",
        "name:tr": "Karakilise",
        "name:uk": "Ванадзор",
        "old_name": "Gharakilisa, Kirovakan",
        "old_name:ru": "Караклис;Каракилисе;Кировакан",
        "place": "city",
        "population": "82200",
        "website": "http://www.vanadzor.am/",
        "wikidata": "Q62337",
        "wikipedia": "en:Vanadzor"
      },
      "geometry": {
        "type": "Point",
        "coordinates": [
          44.4851995,
          40.8111917
        ]
      },
      "id": "node/208853190"
    },
    {
      "type": "Feature",
      "properties": {
        "@id": "node/212488422",
        "name": "Isparta",
        "name:ar": "إسبرطة",
        "name:el": "Σπάρτη",
        "name:en": "Isparta",
        "name:fa": "اسپارتا",
        "name:hi": "इस्पार्टा",
        "name:ja": "ウスパルタ",
        "name:ml": "ഇസ്പാർട്ട",
        "name:ru": "Ыспарта",
        "old_name": "Hamidabad;Isbarta;Sabarta;Baris;Βάρις;Σπάρτη της Πισιδίας;Βάρη",
        "place": "city",
        "population": "427324",
        "salb:adm1name": "Isparta",
        "salb:adm2name": "Isparta Merkez Ilcesi",
        "salb:id": "TUR040013",
        "salb:name": "Isparta",
        "source": "Wikipedia (tr)",
        "wikidata": "Q171031",
        "wikipedia": "tr:Isparta"
      },
      "geometry": {
        "type": "Point",
        "coordinates": [
          30.5556933,
          37.77035
        ]
      },
      "id": "node/212488422"
    },
    {
      "type": "Feature",
      "properties": {
        "@id": "node/213402531",
        "capital": "6",
        "ele": "440",
        "int_name": "Zakho",
        "is_in:region": "اقليم كردستان العراق",
        "name": "زاخۆ",
        "name:arc": "ܙܵܟ̣ܘ̇",
        "name:ckb": "زاخۆ",
        "name:en": "Zakho",
        "name:he": "זאכו",
        "name:ja": "ザーホー",
        "name:ku": "Zaxo",
        "name:ml": "സാക്കൂ",
        "name:ru": "Заху",
        "name:tr": "Zaho",
        "place": "city",
        "population": "197163",
        "postal_code": "42002",
        "wikidata": "Q167800",
        "wikipedia": "ckb:زاخۆ"
      },
      "geometry": {
        "type": "Point",
        "coordinates": [
          42.6822907,
          37.1433762
        ]
      },
      "id": "node/213402531"
    },
    {
      "type": "Feature",
      "properties": {
        "@id": "node/218730242",
        "name": "ქუთაისი",
        "name:ab": "Қәҭешь",
        "name:ar": "كوتايسي",
        "name:az": "Kutaisi",
        "name:be": "Кутаісі",
        "name:bg": "Кутаиси",
        "name:ca": "Kutaïsi",
        "name:ce": "Кутаиси",
        "name:cv": "Кутаиси",
        "name:de": "Kutaissi",
        "name:el": "Κουτάισι",
        "name:en": "Kutaisi",
        "name:eo": "Kutaiso",
        "name:es": "Kutaisi",
        "name:et": "Khuthaisi",
        "name:fa": "کوتائیسی",
        "name:fr": "Koutaïssi",
        "name:gag": "Kutaisi",
        "name:he": "כותאיסי",
        "name:hi": "कुटैसी",
        "name:hu": "Kutaiszi",
        "name:hy": "Քութայիս",
        "name:it": "Kutaisi",
        "name:ja": "クタイシ",
        "name:ka": "ქუთაისი",
        "name:ko": "쿠타이시",
        "name:lt": "Kutaisis",
        "name:mr": "कुतैसी",
        "name:nl": "Koetaisi",
        "name:os": "Кутаиси",
        "name:ru": "Кутаиси",
        "name:sr": "Кутаиси",
        "name:tr": "Kutayıs",
        "name:uk": "Кутаїсі",
        "name:zh": "庫塔伊西",
        "place": "city",
        "population": "186000",
        "website": "http://kutaisi.gov.ge/",
        "wikidata": "Q172415",
        "wikipedia": "ka:ქუთაისი"
      },
      "geometry": {
        "type": "Point",
        "coordinates": [
          42.705359,
          42.2716455
        ]
      },
      "id": "node/218730242"
    },
    {
      "type": "Feature",
      "properties": {
        "@id": "node/248154948",
        "alt_name:tr": "Münbiç",
        "int_name": "Manbij",
        "is_in": "Aleppo;Syria",
        "name": "منبج",
        "name:cs": "Manbidž",
        "name:de": "Manbidsch",
        "name:el": "Μεμβίτζ",
        "name:en": "Manbij",
        "name:fr": "Manbij",
        "name:hi": "मनबिज",
        "name:hy": "Մանբիջ",
        "name:ku": "Minbic",
        "name:ml": "മൻബിജ്",
        "name:ru": "Манбидж",
        "name:tr": "Menbiç",
        "name:zh": "曼比季",
        "old_name": "Mabbog;Hiérapolis Bambyce",
        "place": "city",
        "population": "74575",
        "source:population": "French Wikipedia",
        "wikidata": "Q1146939",
        "wikipedia": "en:Manbij"
      },
      "geometry": {
        "type": "Point",
        "coordinates": [
          37.9559288,
          36.5269242
        ]
      },
      "id": "node/248154948"
    },
    {
      "type": "Feature",
      "properties": {
        "@id": "node/248436981",
        "alt_name": "باوەگوڕگوڕ",
        "alt_name:syc": "ܟܪܟܘܟ",
        "capital": "4",
        "name": "كركوك",
        "name:ar": "كركوك",
        "name:arc": "ܟܪܟ ܣܠܘܟ",
        "name:arz": "كركوك",
        "name:az-Arab": "کرکوک",
        "name:azb": "کرکوک",
        "name:ckb": "کەرکووک",
        "name:cs": "Kirkúk",
        "name:da": "Kirkuk",
        "name:de": "Kirkuk",
        "name:diq": "Kerkûk",
        "name:el": "Κιρκούκ",
        "name:en": "Kirkuk",
        "name:et": "Kirkūk",
        "name:fa": "کرکوک",
        "name:fi": "Kirkuk",
        "name:fr": "Kirkouk",
        "name:hi": "अत तमीम (किरकुक)",
        "name:hy": "Քիրքուք",
        "name:hyw": "Քերքուք",
        "name:ja": "キルクーク",
        "name:kk-Arab": "كىيركۋك",
        "name:kmr": "کەرکووک",
        "name:kn": "ಕಿರ್ಕುಕ್",
        "name:ks": "کرکوک",
        "name:ku": "Kerkûk",
        "name:ml": "കിർകുക്ക്",
        "name:mzn": "کرکوک",
        "name:ota": "کرکوک",
        "name:pa-Arab": "کرکوک",
        "name:pl": "Kirkuk",
        "name:pnb": "کرکوک",
        "name:ru": "Кркук",
        "name:sv": "Kirkuk",
        "name:syc": "ܟܪܟ ܣܠܘܟ",
        "name:tr": "Kerkük",
        "name:uk": "Кіркук",
        "name:ur": "کرکوک",
        "place": "city",
        "population": "850787",
        "postal_code": "36001",
        "wikidata": "Q173310",
        "wikipedia": "ar:كركوك",
        "wikipedia:ar": "ar:كركوك",
        "wikipedia:arc": "ܟܪܟ ܣܠܘܟ (ܡܕܝܢܬܐ)",
        "wikipedia:ckb": "ckb:کەرکووک"
      },
      "geometry": {
        "type": "Point",
        "coordinates": [
          44.395723,
          35.4703415
        ]
      },
      "id": "node/248436981"
    },
    {
      "type": "Feature",
      "properties": {
        "@id": "node/256909632",
        "is_in": "Turkey, Muğla",
        "name": "Ula",
        "place": "city",
        "population": "23877",
        "population:date": "2016",
        "wikidata": "Q1803032"
      },
      "geometry": {
        "type": "Point",
        "coordinates": [
          28.4162603,
          37.1030725
        ]
      },
      "id": "node/256909632"
    },
    {
      "type": "Feature",
      "properties": {
        "@id": "node/270488512",
        "alt_name": "إدلب",
        "alt_name:he": "אידליב",
        "is_in": "Syria,Idlib",
        "name": "إدلب",
        "name:ar": "إدلب",
        "name:cs": "Idlib",
        "name:de": "Idlib",
        "name:en": "Idlib",
        "name:et": "Idlib",
        "name:fr": "Idlib",
        "name:he": "אדלב",
        "name:hi": "इड्लिब",
        "name:hr": "Idlib",
        "name:hu": "Idlib",
        "name:ku": "Îdlîb",
        "name:lt": "Idlibas",
        "name:ml": "ഇദ്ലിബ്",
        "name:ru": "Идлиб",
        "name:tr": "İdlib",
        "name:zh": "伊德利卜",
        "place": "city",
        "population": "157000",
        "wikidata": "Q504657",
        "wikipedia": "fr:Idleb"
      },
      "geometry": {
        "type": "Point",
        "coordinates": [
          36.6353017,
          35.9278306
        ]
      },
      "id": "node/270488512"
    },
    {
      "type": "Feature",
      "properties": {
        "@id": "node/270692984",
        "int_name": "Ariha",
        "is_in": "Syria, Idlib سوريا، إدلب",
        "name": "أريحا",
        "name:ar": "أريحا",
        "name:de": "Ariha",
        "name:el": "Αριά",
        "name:en": "Arihah",
        "name:es": "Arihah",
        "name:fr": "Ariha",
        "name:hu": "Aríha",
        "name:ku": "Erîha",
        "name:lt": "Ariha",
        "name:ru": "Эриха",
        "place": "city",
        "wikidata": "Q2631639",
        "wikipedia": "en:Ariha, Syria"
      },
      "geometry": {
        "type": "Point",
        "coordinates": [
          36.6103721,
          35.8130629
        ]
      },
      "id": "node/270692984"
    },
    {
      "type": "Feature",
      "properties": {
        "@id": "node/280679947",
        "is_in": "Samegrelo, Georgia, Asia",
        "is_in:continent": "Asia",
        "is_in:country": "Georgia",
        "is_in:country_code": "GE",
        "is_in:district": "Zugdidi",
        "is_in:region": "Samegrelo",
        "name": "ზუგდიდი",
        "name:ab": "Жәыргьыҭ",
        "name:de": "Sugdidi",
        "name:en": "Zugdidi",
        "name:es": "Zugdidi",
        "name:fr": "Zougdidi",
        "name:he": "זוגדידי",
        "name:it": "Zugdidi",
        "name:ka": "ზუგდიდი",
        "name:ko": "주그디디",
        "name:lt": "Zugdidis",
        "name:ru": "Зугдиди",
        "name:sr": "Зугдиди",
        "name:uk": "Зугдіді",
        "name:xmf": "ზუგდიდი",
        "place": "city",
        "population": "69000",
        "wikidata": "Q185336",
        "wikipedia": "ka:ზუგდიდი"
      },
      "geometry": {
        "type": "Point",
        "coordinates": [
          41.8713297,
          42.5067616
        ]
      },
      "id": "node/280679947"
    },
    {
      "type": "Feature",
      "properties": {
        "@id": "node/289534897",
        "name": "Bursa",
        "name:ar": "بورصة",
        "name:el": "Προύσα",
        "name:en": "Bursa",
        "name:hi": "बुर्सा",
        "name:hu": "Bursa",
        "name:ja": "ブルサ",
        "name:kn": "ಬುರ್ಸಾ",
        "name:mk": "Бурса",
        "name:ml": "ബുർസ",
        "name:ru": "Бурса",
        "name:uk": "Бурса",
        "place": "city",
        "population": "2901396",
        "population:date": "2017",
        "salb:id": "TUR016",
        "salb:name": "Bursa",
        "wikidata": "Q40738",
        "wikipedia": "tr:Bursa"
      },
      "geometry": {
        "type": "Point",
        "coordinates": [
          29.0677305,
          40.1827657
        ]
      },
      "id": "node/289534897"
    },
    {
      "type": "Feature",
      "properties": {
        "@id": "node/306213529",
        "alt_name:ar": "فاماغوستا",
        "alt_name:tr": "Mağusa",
        "capital": "5",
        "designation": "Municipality",
        "int_name": "Famagusta",
        "is_in": "Cyprus",
        "is_in:continent": "Europe",
        "is_in:country": "Cyprus",
        "is_in:country_code": "CY",
        "name": "Gazimağusa",
        "name:ar": "الماغوصة",
        "name:ca": "Famagusta",
        "name:da": "Famagusta",
        "name:de": "Famagusta",
        "name:el": "Αμμόχωστος",
        "name:en": "Famagusta",
        "name:es": "Famagusta",
        "name:et": "Famagusta",
        "name:fr": "Famagouste",
        "name:he": "פמגוסטה",
        "name:it": "Famagosta",
        "name:ml": "ഫാമഗുസ്ത",
        "name:oc": "Famagosta",
        "name:pl": "Famagusta",
        "name:ru": "Фамагуста",
        "name:tr": "Gazimağusa",
        "name:uk": "Фамагуста",
        "old_name": "Ammochostos",
        "place": "city",
        "population": "42526",
        "website": "http://www.magusa.org/",
        "wikidata": "Q193190",
        "wikipedia": "en:Famagusta"
      },
      "geometry": {
        "type": "Point",
        "coordinates": [
          33.9325419,
          35.1245436
        ]
      },
      "id": "node/306213529"
    },
    {
      "type": "Feature",
      "properties": {
        "@id": "node/428039507",
        "alt_name": "Smyrna",
        "name": "İzmir",
        "name:ar": "إزمير",
        "name:ca": "Esmirna",
        "name:cs": "Smyrna",
        "name:de": "Izmir",
        "name:el": "Σμύρνη",
        "name:en": "Izmir",
        "name:es": "Esmirna",
        "name:fi": "Smyrna",
        "name:he": "איזמיר",
        "name:hi": "इज़मिर",
        "name:it": "Smirne",
        "name:ja": "イズミル",
        "name:kn": "ಈಝ್ನೀರ್",
        "name:ku": "Izmîr",
        "name:lt": "Izmiras",
        "name:mk": "Измир",
        "name:ml": "ഇസ്മീർ",
        "name:oc": "Esmirna",
        "name:pt": "Esmirna",
        "name:ru": "Измир",
        "name:sr": "Измир",
        "name:tr": "İzmir",
        "name:uk": "Ізмір",
        "old_name": "Smyrna",
        "place": "city",
        "population": "4223545",
        "salb:id": "TUR042",
        "salb:name": "Izmir",
        "source": "Wikipedia",
        "source:name:oc": "Lo Congrès",
        "wikidata": "Q35997",
        "wikipedia": "tr:İzmir"
      },
      "geometry": {
        "type": "Point",
        "coordinates": [
          27.1434119,
          38.4147331
        ]
      },
      "id": "node/428039507"
    },
    {
      "type": "Feature",
      "properties": {
        "@id": "node/428039517",
        "admin_level": "4",
        "capital": "4",
        "geonames:id": "323777",
        "name": "Antalya",
        "name:ar": "أنطاليا",
        "name:el": "Αττάλεια",
        "name:en": "Antalya",
        "name:he": "אנטליה",
        "name:hi": "अंताल्या",
        "name:ja": "アンタルヤ",
        "name:lt": "Antalija",
        "name:ml": "അന്താല്യ",
        "name:pt": "Antália",
        "name:ru": "Анталья",
        "name:sr": "Анталија",
        "name:uk": "Анталія",
        "old_name": "Adalia;Attaleia",
        "place": "city",
        "population": "2548308",
        "population:date": "2021",
        "salb:adm1name": "Antalya",
        "salb:adm2name": "Antalya Merkez Ilcesi",
        "salb:id": "TUR008015",
        "salb:name": "Antalya",
        "source": "Wikipedia (tr)",
        "wikidata": "Q6487",
        "wikipedia": "tr:Antalya"
      },
      "geometry": {
        "type": "Point",
        "coordinates": [
          30.6954846,
          36.9009641
        ]
      },
      "id": "node/428039517"
    },
    {
      "type": "Feature",
      "properties": {
        "@id": "node/512552945",
        "name": "Trabzon",
        "name:ar": "طرابزون",
        "name:ca": "Trebisonda",
        "name:el": "Τραπεζούντα",
        "name:es": "Trebisonda",
        "name:fa": "طربزون",
        "name:hi": "ट्राब्ज़न",
        "name:hy": "Տրապիզոն",
        "name:it": "Trebisonda",
        "name:ka": "ტამტრა",
        "name:lt": "Trabzonas",
        "name:ml": "ട്രാബ്‌സൺ",
        "name:ru": "Трабзон",
        "name:uk": "Трабзон",
        "place": "city",
        "population": "779379",
        "wikidata": "Q45301",
        "wikipedia": "tr:Trabzon"
      },
      "geometry": {
        "type": "Point",
        "coordinates": [
          39.7257547,
          41.0062202
        ]
      },
      "id": "node/512552945"
    },
    {
      "type": "Feature",
      "properties": {
        "@id": "node/571192785",
        "alt_name": "جسر الشغور",
        "alt_name:en": "Jisr al-Shughour",
        "alt_name:fr": "Jisr Al-Choghour",
        "int_name": "Djisr el Choghour, Jisr Al-Shughour, Jisr ash Shaghur, Jisr ash Shāghūr, Jisr ech Chorhour, Jisr esh Shaur, Jisr esh Shughur, Jisr esh Shughūr, Jisr-esh-Shughour, Jisr ash Shughūr, Jisr al-Shoughour",
        "is_in": "Syria, الجمهورية العربية السورية ، سوريا",
        "name": "جسر الشغور",
        "name:ar": "جسر الشغور",
        "name:ar1": "جسر الشغور",
        "name:cs": "Džisr aš-Šugúr",
        "name:de": "Jisr ash-Shugur",
        "name:en": "Jisr ash-Shugur",
        "name:fr": "Jisr al-Choughour",
        "name:he": "ג'סר א-שורור",
        "name:ku": "Cîsr eş-Şugur",
        "name:lt": "Džisr aš Šuguras",
        "name:pl": "Dżisr asz-Szughur",
        "name:ru": "Джиср-эш-Шугур",
        "name:tr": "Cisr eş-Şuğur",
        "name:zh": "吉斯爾舒古爾",
        "place": "city",
        "population": "44322",
        "wikidata": "Q798765",
        "wikipedia": "en:Jisr al-Shughur"
      },
      "geometry": {
        "type": "Point",
        "coordinates": [
          36.3174963,
          35.8155686
        ]
      },
      "id": "node/571192785"
    },
    {
      "type": "Feature",
      "properties": {
        "@id": "node/571225333",
        "alt_name": "العكيرشي",
        "alt_name:ar": "العكيرشي",
        "capital": "4",
        "name": "الرقة",
        "name:ar": "الرقة",
        "name:az-Arab": "رقه",
        "name:azb": "رقه",
        "name:cs": "Rakka",
        "name:de": "Ar-Raqqa",
        "name:el": "Ράκκα",
        "name:en": "Raqqa",
        "name:es": "Al Raqa",
        "name:et": "Ar-Raqqah",
        "name:fi": "Rakka",
        "name:fr": "Raqqa",
        "name:gr": "Καλλινικος",
        "name:he": "א-רקה",
        "name:hi": "अल-रक़्क़ा",
        "name:hu": "Rakka",
        "name:kk-Arab": "راققا",
        "name:ku": "Reqa",
        "name:la": "Callinicum",
        "name:ml": "അൽ-റഖ",
        "name:nl": "Raqqa",
        "name:pl": "Ar-Rakka",
        "name:ru": "Эр-Ракка",
        "name:tr": "Rakka",
        "name:ur": "الرقہ",
        "name:zh": "拉卡",
        "old_name": "Nicephorium",
        "place": "city",
        "population": "200000",
        "wikidata": "Q283368",
        "wikipedia": "ar:الرقة"
      },
      "geometry": {
        "type": "Point",
        "coordinates": [
          39.0089212,
          35.949678
        ]
      },
      "id": "node/571225333"
    },
    {
      "type": "Feature",
      "properties": {
        "@id": "node/572557865",
        "alt_name": "حماه",
        "alt_name:ar": "حماه",
        "int_name": "Epiphaneia, Epiphania, Hama, Hamao, Hamath, Khama, hmat, Хама, حماة, Ḩamāh",
        "name": "حماة",
        "name:am": "ሐማት",
        "name:ar": "حماة",
        "name:arc": "ܚܡܬ",
        "name:azb": "حماه",
        "name:cs": "Hamá",
        "name:de": "Hama",
        "name:en": "Hama",
        "name:es": "Hama",
        "name:et": "Ḩamāh",
        "name:fa": "حمات",
        "name:fr": "Hama",
        "name:he": "חמאת",
        "name:hu": "Hamá",
        "name:it": "Hama",
        "name:ja": "ハマー",
        "name:ko": "하마",
        "name:ku": "Hema",
        "name:lt": "Hama",
        "name:ml": "ഹമാ",
        "name:mzn": "حماه",
        "name:nl": "Hama",
        "name:ru": "Хама",
        "name:tr": "Hama",
        "name:uk": "Хама",
        "name:ur": "حماہ",
        "name:zh": "哈馬",
        "place": "city",
        "population": "696863",
        "wikidata": "Q173545",
        "wikipedia": "ar:حماة"
      },
      "geometry": {
        "type": "Point",
        "coordinates": [
          36.7496276,
          35.1343368
        ]
      },
      "id": "node/572557865"
    },
    {
      "type": "Feature",
      "properties": {
        "@id": "node/572568688",
        "int_name": "Hasake, Haseke, Hasiji, Hassetche, Hasski, Ḩasiji, Ḩasski, Ḩasaka, Hasseke, Hesîçe, حەسیچە",
        "name": "الحسكة",
        "name:ar": "الحسكة",
        "name:ckb": "حەسیچە",
        "name:cs": "Hasaka",
        "name:de": "Hasaka",
        "name:en": "Al-Hasakah",
        "name:es": "Hasaka",
        "name:fa": "حسکه",
        "name:fr": "Hassaké",
        "name:he": "אל-חסכה",
        "name:hi": "हसकाह",
        "name:hu": "Haszaka",
        "name:ku": "Hesîçe",
        "name:ku-Arab": "حەسیچە",
        "name:lt": "Hasekė",
        "name:ml": "അൽ-ഹസക്ക",
        "name:pl": "Al-Hasaka",
        "name:ru": "Эль-Хасака",
        "name:tr": "Hasiçi",
        "name:ur": "الحسکہ",
        "name:zh": "哈塞克",
        "place": "city",
        "population": "188160",
        "wikidata": "Q311321",
        "wikipedia": "ar:الحسكة (مدينة)"
      },
      "geometry": {
        "type": "Point",
        "coordinates": [
          40.7469948,
          36.5013738
        ]
      },
      "id": "node/572568688"
    },
    {
      "type": "Feature",
      "properties": {
        "@id": "node/573457897",
        "alt_name": "دير الزور;Deyrazor;Deir Ezzor;Deir Al-Zor;Dayr Al-Zawr;Der Ezzor;Dair az-Zaur;Deyr-i Zor;Deyru'z-Zur;Der Zor;Der ez-Zor",
        "alt_name:de": "Deir ez-Zor",
        "alt_name:fr": "Deir Ez-Zar;Deir-Ezzor",
        "int_name": "Azaura, Dayr al-Zor, Dayr az Zur, Dayr az Zūr, Deir Zzor, Deir ez Zoar, Deir ez Zor, Deïr ez Zor, Dayr az Zawr",
        "is_in": "Syria, Deir ez-Zor سوريا دير الزور",
        "is_in:continent": "Asia",
        "is_in:country": "Syria",
        "is_in:country_code": "SY",
        "is_in:state": "Deir ez-Zor",
        "name": "دير الزور",
        "name:cs": "Dajr az-Zaur",
        "name:de": "Deir Ezzor",
        "name:en": "Deir Ez Zor",
        "name:es": "Deir ez-Zor",
        "name:et": "Dayr az-Zawr",
        "name:fr": "Deïr ez Zôr",
        "name:he": "דיר א-זור",
        "name:hi": "दीर एज़ ज़ोर",
        "name:hu": "Dajr ez-Zaur",
        "name:hy": "Դեր Զոր",
        "name:ja": "デリゾール",
        "name:ko": "데이르에즈조르",
        "name:ku": "Dêrazor",
        "name:lt": "Deir ez Zoras",
        "name:ml": "ദെയ്ർ എസ്-സോർ",
        "name:ru": "Дейр-эз-Зор",
        "name:tr": "Deyrizor",
        "name:zh": "代尔祖尔",
        "place": "city",
        "population": "283434",
        "wikidata": "Q239097",
        "wikipedia": "en:Deir ez Zor"
      },
      "geometry": {
        "type": "Point",
        "coordinates": [
          40.1499999,
          35.3333335
        ]
      },
      "id": "node/573457897"
    },
    {
      "type": "Feature",
      "properties": {
        "@id": "node/598459803",
        "addr:city": "سلێمانی",
        "addr:street": "Ranya",
        "alt_name": "ڕانیە",
        "capital": "6",
        "description": "Qasre",
        "ele": "576",
        "int_name": "Ranya",
        "is_in": "Sulaymaniyah, Iraq",
        "is_in:continent": "Asia",
        "is_in:country": "Iraq",
        "is_in:country_code": "IQ",
        "name": "ڕانیە",
        "name:ar": "رانية",
        "name:en": "Ranya",
        "name:ja": "ラーンヤ",
        "name:ku": "ڕانیە",
        "name:ru": "Рания",
        "place": "city",
        "population": "130000",
        "population:date": "2014",
        "source:population": "https://ckb.wikipedia.org/wiki/%DA%95%D8%A7%D9%86%DB%8C%DB%95",
        "website": "www.Qasre91.blogspot.com",
        "wikidata": "Q1656131",
        "wikipedia": "ckb:ڕانیە"
      },
      "geometry": {
        "type": "Point",
        "coordinates": [
          44.8827887,
          36.2565246
        ]
      },
      "id": "node/598459803"
    },
    {
      "type": "Feature",
      "properties": {
        "@id": "node/599019138",
        "alt_name": "هەڤلێر",
        "alt_name:ar": "أربيل;هولير;اربيل",
        "alt_name:arc": "ܡܕܝܢܬܐ ܕܐܪܒܝܠ",
        "alt_name:cs": "Erbíl",
        "alt_name:de": "Erbil",
        "alt_name:en": "Irbil",
        "alt_name:ku": "Hevlêr",
        "alt_name:syc": "ܡܕܝܢܬܐ ܕܐܪܒܝܠ",
        "capital": "4",
        "ele": "390",
        "name": "هەولێر",
        "name:ar": "إربل",
        "name:arc": "ܐܪܒܝܠ",
        "name:azb": "هەولێر",
        "name:ckb": "هەولێر",
        "name:cs": "Hawlêr",
        "name:de": "Irbil",
        "name:en": "Erbil",
        "name:es": "Erbil",
        "name:et": "Erbil",
        "name:fa": "اربیل",
        "name:fi": "Erbil",
        "name:fr": "Erbil",
        "name:he": "ארביל",
        "name:hi": "अरबील",
        "name:kmr": "هەولێر",
        "name:ks": "اربل",
        "name:ku": "Hewlêr",
        "name:lt": "Erbil",
        "name:ml": "അർബിൽ",
        "name:mzn": "اربل",
        "name:pnb": "اربل",
        "name:ps": "اربل",
        "name:ru": "Хаулэрь",
        "name:syc": "ܐܪܒܝܠ",
        "name:tr": "Erbil",
        "name:uk": "Ербіль",
        "name:ur": "اربل",
        "openGeoDB:telephone_area_code": "066",
        "place": "city",
        "population": "930388",
        "postal_code": "44001",
        "province": "هەولێر",
        "tourism": "yes",
        "wikidata": "Q132754",
        "wikipedia": "ar:إربل",
        "wikipedia:ar": "إربل",
        "wikipedia:arc": "ܐܪܒܝܠ (ܡܕܝܢܬܐ)"
      },
      "geometry": {
        "type": "Point",
        "coordinates": [
          44.0094652,
          36.1911624
        ]
      },
      "id": "node/599019138"
    },
    {
      "type": "Feature",
      "properties": {
        "@id": "node/676672956",
        "alt_name": "Girne",
        "alt_name:de": "Keryneia",
        "alt_name:tr": "Keryneia",
        "capital": "5",
        "designation": "Municipality",
        "int_name": "Kyrenia",
        "is_in": "Cyprus",
        "is_in:continent": "Europe",
        "is_in:country": "Cyprus",
        "is_in:country_code": "CY",
        "name": "Girne",
        "name:ar": "غرنة",
        "name:de": "Kyrenia",
        "name:el": "Κερύνεια",
        "name:en": "Kyrenia",
        "name:et": "Kyrenia",
        "name:fi": "Kyrenia",
        "name:fr": "Kyrenia",
        "name:ml": "കുറേന്യ",
        "name:ru": "Кирения",
        "name:tr": "Girne",
        "name:uk": "Кіренія",
        "place": "city",
        "population": "33207",
        "source": "UN Gazetteer",
        "wikidata": "Q206760",
        "wikipedia": "el:Κερύνεια"
      },
      "geometry": {
        "type": "Point",
        "coordinates": [
          33.3188405,
          35.3352654
        ]
      },
      "id": "node/676672956"
    },
    {
      "type": "Feature",
      "properties": {
        "@id": "node/836529193",
        "capital": "4",
        "ekatte": "68850",
        "int_name": "Stara Zagora",
        "name": "Стара Загора",
        "name:bg": "Стара Загора",
        "name:de": "Stara Sagora",
        "name:el": "Στάρα Ζαγόρα",
        "name:en": "Stara Zagora",
        "name:et": "Stara Zagora",
        "name:fr": "Stara Zagora",
        "name:grc": "Βερόη",
        "name:hr": "Stara Zagora",
        "name:nl": "Stara Zagora",
        "name:ro": "Stara Zagora",
        "name:ru": "Стара-Загора",
        "name:sr": "Стара Загора",
        "name:tr": "Eski Zağra",
        "place": "city",
        "population": "149266",
        "website": "https://starazagora.bg/",
        "wikidata": "Q170415",
        "wikipedia": "bg:Стара Загора"
      },
      "geometry": {
        "type": "Point",
        "coordinates": [
          25.6257479,
          42.4248111
        ]
      },
      "id": "node/836529193"
    },
    {
      "type": "Feature",
      "properties": {
        "@id": "node/1413814168",
        "alt_name:ar": "ديانا",
        "alt_name:ckb": "دیانە",
        "alt_name:en": "Diana",
        "capital": "6",
        "name": "سۆران",
        "name:ar": "سوران",
        "name:azb": "سوران",
        "name:ckb": "سۆران",
        "name:en": "Soran",
        "name:es": "Soran",
        "name:fa": "سوران",
        "name:fr": "Soran",
        "name:kmr": "سۆران",
        "name:ks": "سوران",
        "name:ku": "Soran",
        "name:ml": "സോറാൻ",
        "name:tr": "Soran",
        "name:ur": "سوران",
        "place": "city",
        "population": "125000",
        "postal_code": "44018",
        "wikidata": "Q1529881",
        "wikipedia": "ckb:سۆران",
        "wikipedia:ar": "سوران (العراق)"
      },
      "geometry": {
        "type": "Point",
        "coordinates": [
          44.5390147,
          36.6532422
        ]
      },
      "id": "node/1413814168"
    },
    {
      "type": "Feature",
      "properties": {
        "@id": "node/1606160775",
        "addr:postcode": "81100",
        "capital": "5",
        "int_name": "Mytilene",
        "name": "Μυτιλήνη",
        "name:de": "Mytilini",
        "name:el": "Μυτιλήνη",
        "name:en": "Mytilene",
        "name:es": "Mitilene",
        "name:fr": "Mytilène",
        "name:it": "Mitilene",
        "name:lt": "Mitilėnė",
        "name:mk": "Митилена",
        "name:pt": "Mitilene",
        "name:ro": "Mytilene",
        "name:ru": "Митилини",
        "name:tr": "Midilli",
        "place": "city",
        "population": "36163",
        "wikidata": "Q189059",
        "wikipedia": "el:Μυτιλήνη",
        "wikipedia:en": "Mytilene"
      },
      "geometry": {
        "type": "Point",
        "coordinates": [
          26.5538342,
          39.1061204
        ]
      },
      "id": "node/1606160775"
    },
    {
      "type": "Feature",
      "properties": {
        "@id": "node/1614277087",
        "addr:country": "GE",
        "admin_level": "2",
        "alt_name:ca": "Tiflis",
        "alt_name:ko": "뜨빌리씨",
        "capital": "yes",
        "capital_ISO3166-1": "yes",
        "int_name": "Tbilisi",
        "name": "თბილისი",
        "name:ab": "Қарҭ",
        "name:ace": "Tbilisi",
        "name:af": "Tbilisi",
        "name:am": "ትብሊሲ",
        "name:an": "Tbilisi",
        "name:ar": "تبليسي",
        "name:arc": "ܛܒܝܠܝܣܝ",
        "name:av": "Тбилиси",
        "name:az": "Tbilisi",
        "name:bat-smg": "Tbėlėsis",
        "name:bcl": "Tbilisi",
        "name:be": "Тбілісі",
        "name:be-tarask": "Тбілісі",
        "name:bg": "Тбилиси",
        "name:bn": "তিবি‌লিসি",
        "name:bo": "ཁྲེ་བྷི་ལི་སི།",
        "name:br": "Tbilisi",
        "name:bs": "Tbilisi",
        "name:ca": "Tbilissi",
        "name:ckb": "تبلیس",
        "name:cs": "Tbilisi",
        "name:cv": "Тбилиси",
        "name:cy": "Tbilisi",
        "name:da": "Tbilisi",
        "name:de": "Tiflis",
        "name:diq": "Tıflis",
        "name:el": "Τιφλίδα",
        "name:en": "Tbilisi",
        "name:eo": "Tbiliso",
        "name:es": "Tiflis",
        "name:et": "Thbilisi",
        "name:eu": "Tbilisi",
        "name:fa": "تفلیس",
        "name:fi": "Tbilisi",
        "name:fiu-vro": "Thbilisi",
        "name:fo": "Tbilisi",
        "name:fr": "Tbilissi",
        "name:frp": "Tbilisi",
        "name:fy": "Tbilisy",
        "name:ga": "Tbilisi",
        "name:gag": "Tbilisi",
        "name:gd": "Tbilisi",
        "name:gl": "Tbilisi",
        "name:gv": "Tbilisi",
        "name:he": "טביליסי",
        "name:hi": "तिब्लिसी",
        "name:hif": "Tbilisi",
        "name:hr": "Tbilisi",
        "name:hsb": "Tbilisi",
        "name:ht": "Tbilisi",
        "name:hu": "Tbiliszi",
        "name:hy": "Թբիլիսի",
        "name:id": "Tbilisi",
        "name:io": "Tbilisi",
        "name:is": "Tíblisi",
        "name:it": "Tbilisi",
        "name:ja": "トビリシ",
        "name:jv": "Tbilisi",
        "name:ka": "თბილისი",
        "name:kbd": "Тбилиси",
        "name:kk": "Тбилиси",
        "name:ko": "트빌리시",
        "name:ku": "Tibîlîsî",
        "name:kv": "Тбилиси",
        "name:ky": "Тбилиси",
        "name:la": "Triphelis",
        "name:lbe": "Ттуплис",
        "name:lij": "Tiblisi",
        "name:lmo": "Tbilisi",
        "name:lt": "Tbilisis",
        "name:lv": "Tbilisi",
        "name:mhr": "Тбилиси",
        "name:mi": "Tbilisi",
        "name:mk": "Тбилиси",
        "name:ml": "റ്റ്ബിലിസി",
        "name:mn": "Тбилис",
        "name:mr": "त्बिलिसी",
        "name:mrj": "Тбилиси",
        "name:ms": "Tbilisi",
        "name:myv": "Тбилиси ош",
        "name:mzn": "تفلیس",
        "name:nah": "Tbilisi",
        "name:nan": "Tbilisi",
        "name:nl": "Tbilisi",
        "name:nn": "Tbilisi",
        "name:no": "Tbilisi",
        "name:nov": "Tbilisi",
        "name:oc": "Tbilissi",
        "name:os": "Тбилис",
        "name:pam": "Tbilisi",
        "name:pl": "Tbilisi",
        "name:pms": "Tbilisi",
        "name:pnb": "تبلیسی",
        "name:pt": "Tbilisi",
        "name:ro": "Tbilisi",
        "name:roa-tara": "Tbilisi",
        "name:ru": "Тбилиси",
        "name:sah": "Тбилиси",
        "name:sc": "Tbilisi",
        "name:scn": "Tbilisi",
        "name:sco": "Tbilisi",
        "name:sh": "Tbilisi",
        "name:simple": "Tbilisi",
        "name:sk": "Tbilisi",
        "name:sl": "Tbilisi",
        "name:sq": "Tbilisi",
        "name:sr": "Тбилиси",
        "name:sv": "Tbilisi",
        "name:sw": "Tbilisi",
        "name:szl": "Tbilisi",
        "name:ta": "திபிலீசி",
        "name:tg": "Тбилисӣ",
        "name:th": "ทบิลิซิ",
        "name:tl": "Tbilisi",
        "name:udm": "Тбилиси",
        "name:ug": "تبىلىسى",
        "name:uk": "Тбілісі",
        "name:ur": "تبلیسی",
        "name:vep": "Tbilisi",
        "name:vi": "Tbilisi",
        "name:vo": "Tbilisi",
        "name:war": "Tbilisi",
        "name:wo": "Tibilisi",
        "name:xmf": "ქართი",
        "name:yi": "טביליסי",
        "name:yo": "Tbilisi",
        "name:zh": "第比利斯",
        "old_name:pl": "Tyflis",
        "place": "city",
        "population": "1132000",
        "source:population": "Wikipedia",
        "wikidata": "Q994",
        "wikipedia": "en:Tbilisi"
      },
      "geometry": {
        "type": "Point",
        "coordinates": [
          44.8014495,
          41.6934591
        ]
      },
      "id": "node/1614277087"
    },
    {
      "type": "Feature",
      "properties": {
        "@id": "node/1846826471",
        "capital": "4",
        "name": "Tekirdağ",
        "name:ar": "تكيرداغ",
        "name:bg": "Родосто",
        "name:el": "Ραιδεστός",
        "name:hu": "Rodostó",
        "name:la": "Rhaedestus",
        "name:ru": "Текирдаг",
        "name:tr": "Tekirdağ",
        "place": "city",
        "population": "972875",
        "salb:id": "TUR073",
        "salb:name": "Tekirdag",
        "source": "Wikipedia",
        "wikidata": "Q182009",
        "wikipedia": "tr:Tekirdağ"
      },
      "geometry": {
        "type": "Point",
        "coordinates": [
          27.5107799,
          40.9781214
        ]
      },
      "id": "node/1846826471"
    },
    {
      "type": "Feature",
      "properties": {
        "@id": "node/1882099475",
        "admin_level": "4",
        "alt_name:ar": "بيزنطة",
        "alt_name:mk": "Цариград",
        "capital": "4",
        "name": "İstanbul",
        "name:ab": "Асҭампыл",
        "name:af": "Istanboel",
        "name:ak": "Istanbul",
        "name:am": "ኢስታንቡል",
        "name:an": "Istambul",
        "name:ar": "إسطنبول",
        "name:as": "ইষ্টানবুল",
        "name:av": "Истанбул",
        "name:ba": "Истанбул",
        "name:be": "Стамбул",
        "name:bg": "Истанбул",
        "name:bh": "इस्तांबुल",
        "name:bm": "Istanbul",
        "name:bn": "ইস্তাম্বুল",
        "name:br": "Istanbul",
        "name:bs": "Istanbul",
        "name:ca": "Istanbul",
        "name:ce": "Истмала",
        "name:cs": "Istanbul",
        "name:cu": "Цѣсар҄ь Градъ",
        "name:cv": "Стамбул",
        "name:cy": "Istanbul",
        "name:da": "Istanbul",
        "name:de": "Istanbul",
        "name:el": "Κωνσταντινούπολη",
        "name:en": "Istanbul",
        "name:eo": "Istanbulo",
        "name:es": "Estambul",
        "name:eu": "Istanbul",
        "name:fa": "استانبول",
        "name:fi": "Istanbul",
        "name:fj": "Istanbul",
        "name:fo": "Istanbul",
        "name:fr": "Istanbul",
        "name:fy": "Istanbûl",
        "name:ga": "Iostanbúl",
        "name:gd": "Istanbul",
        "name:gl": "Istambul",
        "name:ha": "Istanbul",
        "name:he": "איסטנבול",
        "name:hi": "इस्तांबुल",
        "name:hr": "Istanbul",
        "name:ht": "Istanboul",
        "name:hu": "Isztambul",
        "name:hy": "Ստամբուլ",
        "name:ia": "Istanbul",
        "name:id": "Istanbul",
        "name:ie": "Istanbul",
        "name:io": "Istanbul",
        "name:is": "Mikligarður",
        "name:it": "Istanbul",
        "name:ja": "イスタンブル",
        "name:jv": "Istanbul",
        "name:ka": "სტამბული",
        "name:kk": "Ыстанбұл",
        "name:kn": "ಇಸ್ತಾಂಬುಲ್",
        "name:ko": "이스탄불",
        "name:ku": "Stembol",
        "name:kw": "Istanbul",
        "name:ky": "Стамбул",
        "name:la": "Constantinopolis",
        "name:lb": "Istanbul",
        "name:li": "Istanboel",
        "name:ln": "Istanbul",
        "name:lo": "ອິສະຕັນບູນ",
        "name:lt": "Stambulas",
        "name:lv": "Stambula",
        "name:mg": "Istanbul",
        "name:mk": "Истанбул",
        "name:ml": "ഇസ്താംബുൾ",
        "name:mn": "Стамбул",
        "name:mr": "इस्तंबूल",
        "name:ms": "Istanbul",
        "name:mt": "Istanbul",
        "name:my": "အစ်စတန်ဘူလ်မြို့",
        "name:na": "Istanbul",
        "name:nb": "Istanbul",
        "name:ne": "इस्तानबुल",
        "name:nl": "Istanboel",
        "name:nn": "Istanbul",
        "name:ny": "Istanbul",
        "name:oc": "Istambol",
        "name:os": "Стамбул",
        "name:pa": "ਇਸਤਾਨਬੁਲ",
        "name:pl": "Stambuł",
        "name:ps": "استنبول",
        "name:pt": "Istambul",
        "name:qu": "Istanbul",
        "name:rm": "Istanbul",
        "name:ro": "Istanbul",
        "name:ru": "Стамбул",
        "name:rw": "Istanbul",
        "name:sc": "Istanbul",
        "name:sd": "استنبول",
        "name:se": "Istanbul",
        "name:sk": "Istanbul",
        "name:sl": "Carigrad",
        "name:so": "Istanbuul",
        "name:sq": "Stambolli",
        "name:sr": "Истанбул",
        "name:sv": "Istanbul",
        "name:sw": "Istanbul",
        "name:ta": "இசுதான்புல்",
        "name:te": "ఇస్తాంబుల్",
        "name:tg": "Истанбул",
        "name:th": "อิสตันบูล",
        "name:tk": "Stambul",
        "name:tl": "Istanbul",
        "name:tr": "İstanbul",
        "name:tt": "Истанбул",
        "name:tw": "Istanbul",
        "name:ug": "Istanbul",
        "name:uk": "Стамбул",
        "name:ur": "استنبول",
        "name:uz": "Istanbul",
        "name:vi": "Istanbul",
        "name:yi": "סטאמבול",
        "name:yo": "Istanbul",
        "name:zh": "伊斯坦布尔",
        "name:zh-Hant": "伊斯坦堡",
        "old_name": "Konstantiniyye",
        "old_name:ar": "القسطنطينية",
        "old_name:bg": "Цариград",
        "old_name:ca": "Constantinoble",
        "old_name:cs": "Konstantinopol",
        "old_name:de": "Konstantinopel",
        "old_name:el": "Κωνσταντινούπολη",
        "old_name:en": "Constantinople",
        "old_name:eo": "Stambulo;Konstantinopolo;Bizanco",
        "old_name:la": "Byzantium",
        "old_name:pl": "Biznacjum;Konstantynopol",
        "old_name:ru": "Константинополь;Царьград",
        "old_name:sk": "Konštantínopol;Carihrad",
        "place": "city",
        "population": "15462452",
        "population:date": "2021",
        "source:name:oc": "Lo Congrès",
        "website": "http://istanbul.gov.tr",
        "wikidata": "Q406",
        "wikipedia": "tr:İstanbul"
      },
      "geometry": {
        "type": "Point",
        "coordinates": [
          28.9651646,
          41.0096334
        ]
      },
      "id": "node/1882099475"
    },
    {
      "type": "Feature",
      "properties": {
        "@id": "node/1893015330",
        "admin_level": "2",
        "alt_name:ar": "الأفقوسية",
        "alt_name:ru": "Левкосия",
        "capital": "yes",
        "capital_ISO3166-1": "yes",
        "name": "Λευκωσία",
        "name:af": "Nicosia",
        "name:am": "ሌፍኮዚያ",
        "name:an": "Nicosia",
        "name:ar": "نيقوسيا",
        "name:arz": "نيكوسيا",
        "name:az": "Nikosiya",
        "name:az-Arab": "لفکوشا",
        "name:azb": "لفکوشا",
        "name:be": "Нікасія",
        "name:bg": "Никозия",
        "name:bn": "নিকোসিয়া",
        "name:bo": "ནེ་ཁོ་ཤི་ཡ།",
        "name:br": "Nikozia",
        "name:bs": "Nikozija",
        "name:ca": "Nicòsia",
        "name:ckb": "نیکۆسیا",
        "name:crh": "Lefkoşa",
        "name:cs": "Nikósie",
        "name:cy": "Nicosia",
        "name:da": "Nicosia",
        "name:de": "Nikosia",
        "name:el": "Λευκωσία",
        "name:en": "Nicosia",
        "name:eo": "Nikozio",
        "name:es": "Nicosia",
        "name:et": "Nikosia",
        "name:fa": "لفکوشای",
        "name:fr": "Nicosie",
        "name:ga": "An Leafcóis",
        "name:gag": "Lefkoşa",
        "name:gd": "Nicosia",
        "name:gl": "Nicosia",
        "name:gr": "Λευκωσία",
        "name:grc": "Λευκωσία",
        "name:gv": "Lefkosia",
        "name:he": "ניקוסיה",
        "name:hi": "निकोसिया",
        "name:hr": "Nikozija",
        "name:ht": "Nikozi",
        "name:hu": "Nicosia",
        "name:hy": "Նիկոսիա",
        "name:hyw": "Նիկոսիա",
        "name:is": "Nikósía",
        "name:it": "Nicosia",
        "name:ja": "ニコシア",
        "name:ka": "ნიქოზია",
        "name:kaa": "Arqa Nikosiya",
        "name:kk": "Никосия",
        "name:kk-Arab": "لەفكوسىييا",
        "name:kl": "Nicosia",
        "name:kn": "ನಿಕೋಸಿಯ",
        "name:ko": "니코시아",
        "name:ky": "Лефкоша",
        "name:la": "Nicosia",
        "name:lad": "Nikosiya",
        "name:lij": "Nicosia",
        "name:lmo": "Nicoséa",
        "name:lt": "Nikosija",
        "name:lv": "Nikosija",
        "name:mdf": "Никосия",
        "name:mi": "Nicosia",
        "name:mk": "Левкозија",
        "name:ml": "നിക്കോഷ്യ",
        "name:mr": "निकोसिया",
        "name:ms": "Nicosia",
        "name:mzn": "نیکوزیا",
        "name:nah": "Nicosia",
        "name:nan": "Nicosia",
        "name:nap": "Nicosìa",
        "name:nl": "Nicosia",
        "name:oc": "Nicosia",
        "name:os": "Никоси",
        "name:pl": "Nikozja",
        "name:pms": "Nicosìa",
        "name:pnb": "نیکوسیا",
        "name:pnt": "Λευκωσίαν",
        "name:ps": "نیکوزیا",
        "name:pt": "Nicósia",
        "name:ro": "Nicosia",
        "name:ru": "Никосия",
        "name:rw": "Nikosiya",
        "name:sah": "Никосия",
        "name:sco": "Nicosia",
        "name:sh": "Nikozija",
        "name:sk": "Nikózia",
        "name:sl": "Nikozija",
        "name:sq": "Nicosia",
        "name:sr": "Никозија",
        "name:stq": "Nicosia",
        "name:sv": "Nicosia",
        "name:ta": "நிக்கோசியா",
        "name:tg": "Никосия",
        "name:th": "นิโคเซีย",
        "name:tl": "Nicosia",
        "name:tr": "Lefkoşa",
        "name:tt": "Никосия",
        "name:udm": "Никосия",
        "name:ug": "نىكوسىيە",
        "name:uk": "Нікосія",
        "name:ur": "نیکوسیا",
        "name:vep": "Nikosii",
        "name:vi": "Nicosia",
        "name:war": "Nicosia",
        "name:yi": "ניקאסיע",
        "name:yo": "Nicosia",
        "name:zh": "尼科西亞",
        "old_name:ar": "الأفقوسية",
        "place": "city",
        "population": "310355",
        "population:date": "2011",
        "source": "UN Gazetteer",
        "website": "http://www.nicosia.org.cy/",
        "wikidata": "Q3856",
        "wikipedia": "el:Λευκωσία"
      },
      "geometry": {
        "type": "Point",
        "coordinates": [
          33.364726,
          35.1739302
        ]
      },
      "id": "node/1893015330"
    },
    {
      "type": "Feature",
      "properties": {
        "@id": "node/2706851374",
        "is_capital": "country",
        "is_in:continent": "Asia",
        "is_in:country": "Georgia",
        "name": "Цхинвал",
        "name:af": "Zchinwali",
        "name:ar": "تسخينفالي",
        "name:az": "Tsxinvali",
        "name:be": "Цхінвалі",
        "name:bg": "Цхинвали",
        "name:bs": "Chinvali",
        "name:ca": "Tskhinvali",
        "name:ce": "Цхинвали",
        "name:cs": "Cchinvali",
        "name:cy": "Tskhinvali",
        "name:da": "Tskhinvali",
        "name:de": "Zchinwali",
        "name:el": "Τσχινβάλι",
        "name:en": "Tskhinvali",
        "name:eo": "Cĥinval",
        "name:es": "Tsjinvali",
        "name:et": "Tshinvali",
        "name:eu": "Tskhinvali",
        "name:fa": "تسخینوالی",
        "name:fi": "Tskhinvali",
        "name:fr": "Tskhinvali",
        "name:gag": "Tshinvali",
        "name:gl": "Tskhinvali",
        "name:he": "צחינוואלי",
        "name:hi": "तस्किनवाली",
        "name:hr": "Chinvali",
        "name:hu": "Chinvali",
        "name:hy": "Ցխինվալ",
        "name:id": "Tskhinvali",
        "name:it": "Tskhinvali",
        "name:ja": "ツヒンヴァリ",
        "name:ka": "ცხინვალი",
        "name:ko": "츠힌발리",
        "name:ku": "Çînwali",
        "name:kv": "Чреба",
        "name:lt": "Cchinvalis",
        "name:lv": "Chinvala",
        "name:ml": "തിസ്ക്കിൻവാലി",
        "name:ms": "Tskhinvali",
        "name:nl": "Tschinvali",
        "name:nn": "Tskhinvali",
        "name:no": "Tskhinvali",
        "name:os": "Цхинвал",
        "name:pa": "ਸਖ਼ਿਨਵਾਲੀ",
        "name:pl": "Cchinwali",
        "name:ps": "تسخینوالی",
        "name:pt": "Tskhinvali",
        "name:ro": "Țhinvali",
        "name:ru": "Цхинвал",
        "name:sc": "Tskhinvali",
        "name:sk": "Cchinvali",
        "name:sq": "Chinvali",
        "name:sr": "Цхинвали",
        "name:sv": "Tschinvali",
        "name:ta": "திஸ்கின்வாலி",
        "name:tg": "Схинволи",
        "name:th": "ซคินวาลี",
        "name:tr": "Tshinvali",
        "name:uk": "Цхінвалі",
        "name:ur": "تسخینوالی",
        "name:uz": "Sxinvali",
        "name:vi": "Tskhinvali",
        "name:vo": "Zkinval",
        "name:zh": "茨欣瓦利",
        "old_name:ru": "Крцхинвали;Сталинири",
        "place": "city",
        "population": "45000",
        "wikidata": "Q79863",
        "wikipedia": "os:Цхинвал"
      },
      "geometry": {
        "type": "Point",
        "coordinates": [
          43.9708477,
          42.2251222
        ]
      },
      "id": "node/2706851374"
    },
    {
      "type": "Feature",
      "properties": {
        "@id": "node/3479054194",
        "name": "Bolu",
        "name:ar": "بولو",
        "name:ml": "ബോലു",
        "place": "city",
        "population": "314896",
        "wikidata": "Q200951",
        "wikipedia": "tr:Bolu"
      },
      "geometry": {
        "type": "Point",
        "coordinates": [
          31.6110479,
          40.7332953
        ]
      },
      "id": "node/3479054194"
    },
    {
      "type": "Feature",
      "properties": {
        "@id": "node/3691998846",
        "name": "عفرين",
        "name:ar": "عفرين",
        "name:azb": "عفرین",
        "name:ckb": "عەفرین",
        "name:de": "Afrin",
        "name:en": "Afrin",
        "name:fa": "عفرین",
        "name:fr": "Afrin",
        "name:hi": "आफरीन",
        "name:hu": "Afrín",
        "name:it": "Afrin",
        "name:kmr": "ئەفرین",
        "name:ks": "عفرین",
        "name:ku": "Efrîn",
        "name:ml": "അഫ്രീൻ",
        "name:mzn": "عفرین",
        "name:pnb": "عفرین",
        "name:ru": "Африн",
        "name:tr": "Afrin",
        "name:ur": "عفرین",
        "name:zh": "阿夫林",
        "place": "city",
        "population": "50000",
        "wikidata": "Q302268",
        "wikipedia": "ku:Efrîn"
      },
      "geometry": {
        "type": "Point",
        "coordinates": [
          36.870089,
          36.5083795
        ]
      },
      "id": "node/3691998846"
    },
    {
      "type": "Feature",
      "properties": {
        "@id": "node/3885116197",
        "alt_name": "الرقة",
        "alt_name:en": "Al-Tabqah",
        "alt_name:ru": "Эт-Табка",
        "int_name": "Al-Tabqah",
        "is_in:continent": "Asia",
        "is_in:country": "Syria",
        "name": "الطبقة",
        "name:cs": "Tabka",
        "name:de": "Syria",
        "name:en": "Al-Tabqah",
        "name:es": "Ath Thawrah",
        "name:fr": "Al-Thawrah",
        "name:ku": "Tebqa",
        "name:ml": "അൽ-തബ്ഖ",
        "name:ru": "Эс-Саура",
        "name:tr": "Al-Thawra",
        "place": "city",
        "population": "69000",
        "wikidata": "Q1822804"
      },
      "geometry": {
        "type": "Point",
        "coordinates": [
          38.5414697,
          35.8323648
        ]
      },
      "id": "node/3885116197"
    },
    {
      "type": "Feature",
      "properties": {
        "@id": "node/5683127962",
        "name": "გორი",
        "name:ab": "Гәар",
        "name:an": "Gori",
        "name:ar": "غوري (جورجيا)",
        "name:az": "Qori şəhəri",
        "name:ba": "Гори",
        "name:be": "Горы",
        "name:bg": "Гори",
        "name:ca": "Gori",
        "name:ce": "Гори",
        "name:cs": "Gori",
        "name:cv": "Гори",
        "name:da": "Gori",
        "name:de": "Gori",
        "name:el": "Γκόρι",
        "name:en": "Gori",
        "name:eo": "Gori",
        "name:es": "Gori",
        "name:et": "Gori",
        "name:eu": "Gori",
        "name:fa": "گوری (گرجستان)",
        "name:fi": "Gori",
        "name:fr": "Gori",
        "name:gl": "Gori",
        "name:he": "גורי",
        "name:hi": "गोरी",
        "name:hr": "Gori",
        "name:hu": "Gori",
        "name:hy": "Գորի",
        "name:id": "Gori",
        "name:it": "Gori",
        "name:ja": "ゴリ (シダ・カルトリ州)",
        "name:ka": "გორი",
        "name:ko": "고리 (조지아)",
        "name:lt": "Goris",
        "name:lv": "Gori",
        "name:ml": "ഗോറി",
        "name:mn": "Гори",
        "name:nl": "Gori",
        "name:nn": "Gori",
        "name:no": "Gori",
        "name:os": "Гур",
        "name:pa": "ਗੋਰੀ",
        "name:pl": "Gori",
        "name:pt": "Gori",
        "name:ro": "Gori",
        "name:ru": "Гори",
        "name:sk": "Gori",
        "name:sl": "Gori",
        "name:sq": "Gori",
        "name:sr": "Гори",
        "name:sv": "Gori",
        "name:tr": "Gori",
        "name:uk": "Горі",
        "name:ur": "گوری، جارجیا",
        "name:uz": "Gori",
        "name:vi": "Gori",
        "name:zh": "哥里",
        "place": "city",
        "population": "48143",
        "wikidata": "Q19583",
        "wikipedia": "ka:გორი"
      },
      "geometry": {
        "type": "Point",
        "coordinates": [
          44.1117811,
          41.9818469
        ]
      },
      "id": "node/5683127962"
    },
    {
      "type": "Feature",
      "properties": {
        "@id": "node/5798692759",
        "capital": "4",
        "name": "Çankırı",
        "name:ar": "جانقري",
        "name:el": "Γάγγρα",
        "name:en": "Çankırı",
        "name:hy": "Չանկիրի",
        "name:ka": "ჩანქირი",
        "name:tr": "Çankırı",
        "name:zza": "Çanqıriye",
        "official_name": "Çankırı",
        "old_name": "Germanicopolis;Gangra;Γάγγρα;Γερμανικόπολις;Changra;Kandari;Kanghari",
        "place": "city",
        "population": "186074",
        "population:date": "2017",
        "wikidata": "Q209925",
        "wikipedia": "tr:Çankırı"
      },
      "geometry": {
        "type": "Point",
        "coordinates": [
          33.6212704,
          40.5971947
        ]
      },
      "id": "node/5798692759"
    },
    {
      "type": "Feature",
      "properties": {
        "@id": "node/6007351271",
        "alt_name": "تل عفر",
        "alt_name:ar": "تل عفر",
        "int_name": "Tal Afar, Tal Afar, Talaafar, Tall Afar, Tel Afar, تلعفر, Tal Afar, Tal Afar, Talaafar, Tall Afar, Tel Afar, تلعفر",
        "name": "تلعفر",
        "name:ar": "تلعفر",
        "name:az-Arab": "تلعفر",
        "name:azb": "تلعفر",
        "name:ckb": "تەلەعفەر",
        "name:de": "Tal Afar",
        "name:en": "Tal Afar",
        "name:es": "Tal Afar",
        "name:fa": "تل‌عفر",
        "name:fr": "Tal Afar",
        "name:mzn": "تلعفر",
        "name:pnb": "تلعفر",
        "name:ru": "Талль-Афар",
        "name:tr": "Telafer",
        "name:ur": "تلعفر",
        "place": "city",
        "wikidata": "Q990427",
        "wikipedia": "ar:تلعفر"
      },
      "geometry": {
        "type": "Point",
        "coordinates": [
          42.4434793,
          36.3740434
        ]
      },
      "id": "node/6007351271"
    },
    {
      "type": "Feature",
      "properties": {
        "@id": "node/6088495935",
        "capital": "4",
        "name": "Sakarya",
        "name:ar": "صقاريا",
        "name:ml": "സഖാര്യ",
        "name:ru": "Сакарья",
        "place": "city",
        "population": "932706",
        "wikidata": "Q83069",
        "wikipedia": "tr:Sakarya"
      },
      "geometry": {
        "type": "Point",
        "coordinates": [
          30.400376,
          40.7795743
        ]
      },
      "id": "node/6088495935"
    },
    {
      "type": "Feature",
      "properties": {
        "@id": "node/6118080042",
        "capital": "4",
        "name": "Kocaeli",
        "place": "city",
        "wikidata": "Q83965",
        "wikipedia": "tr:Kocaeli"
      },
      "geometry": {
        "type": "Point",
        "coordinates": [
          29.9262644,
          40.7632288
        ]
      },
      "id": "node/6118080042"
    },
    {
      "type": "Feature",
      "properties": {
        "@id": "node/6196594141",
        "alt_name:ar": "دينزلي",
        "ele": "354",
        "name": "Denizli",
        "name:ar": "دنيزلي",
        "name:el": "Ντενιζλί",
        "name:en": "Denizli",
        "name:fa": "دنیزلی",
        "name:hi": "डेनिज़ली",
        "name:hu": "Denizli",
        "name:ja": "デニズリ",
        "name:ku": "Denizlî",
        "name:ml": "ഡെനിസ്ലി",
        "name:pt": "Denizli",
        "name:ru": "Денизли",
        "name:ur": "دنیزلی",
        "place": "city",
        "population": "1005687",
        "salb:adm1name": "Denizli",
        "salb:adm2name": "Denizli Merkez Ilcesi",
        "wikidata": "Q170967",
        "wikipedia": "tr:Denizli"
      },
      "geometry": {
        "type": "Point",
        "coordinates": [
          29.0869273,
          37.7733197
        ]
      },
      "id": "node/6196594141"
    },
    {
      "type": "Feature",
      "properties": {
        "@id": "node/8603453649",
        "admin_level": "4",
        "name": "Aydın",
        "name:ar": "أيدين",
        "name:el": "Αϊδίνιο",
        "name:en": "Aydin",
        "name:hi": "ऐदिन",
        "name:hu": "Aydın",
        "name:ml": "അയ്ദീൻ",
        "name:pt": "Aidim",
        "name:ru": "Айдын",
        "name:tr": "Aydın",
        "old_name": "Tralles;Güzelhisar;Guzel Hissar;Τραλλεῖς;Anthea;Euanthia;Erynina;Seleucia ad Maeandrum",
        "place": "city",
        "population": "1119084",
        "population:date": "2021",
        "salb:id": "TUR011017",
        "source": "Wikipedia",
        "wikidata": "Q79846",
        "wikipedia": "tr:Aydın"
      },
      "geometry": {
        "type": "Point",
        "coordinates": [
          27.8435878,
          37.8483767
        ]
      },
      "id": "node/8603453649"
    },
    {
      "type": "Feature",
      "properties": {
        "@id": "node/9177706762",
        "place": "city"
      },
      "geometry": {
        "type": "Point",
        "coordinates": [
          43.9192203,
          36.1934492
        ]
      },
      "id": "node/9177706762"
    }
  ]
}